id,map_id,address,description,pic,link,icon,lat,lng,anim,title,infoopen,category,approved,retina,type,did,other_data
,1,Döberner Str. 20 3149 Forst,<p>Döberner Str. 20<br/>3149 Forst</p>,,,,51.7163,14.615,0,AGIP,0,28,1,0,0,,a:0:{}
,1,Kreillerstr. 220 81825 München,<p>Kreillerstr. 220<br/>81825 München</p>,,,,48.12126164,11.66370821,0,ALLGUTH,0,20,1,0,0,,a:0:{}
,1,Von-Kahr-Str. 1 80997 München,<p>Von-Kahr-Str. 1<br/>80997 München</p>,,,,48.17871,11.48684,0,ALLGUTH,0,20,1,0,0,,a:0:{}
,1,Münchener Str. 17 86899 Landsberg,<p>Münchener Str. 17<br/>86899 Landsberg</p>,,,,48.05179,10.89277,0,ALLGUTH,0,20,1,0,0,,a:0:{}
,1,Münchner Str. 146 85757 Karlsfeld,<p>Münchner Str. 146<br/>85757 Karlsfeld</p>,,,,48.22675,11.46493,0,ALLGUTH,0,20,1,0,0,,a:0:{}
,1,Bodenseestr. 231 81243 München,<p>Bodenseestr. 231<br/>81243 München</p>,,,,48.142944,11.424927,0,ALLGUTH,0,20,1,0,0,,a:0:{}
,1,Chiemgaustr. 185 81549 München,<p>Chiemgaustr. 185<br/>81549 München</p>,,,,48.1092938,11.60826266,0,ALLGUTH,0,20,1,0,0,,a:0:{}
,1,Fürstenrieder Str. 210 81377 München,<p>Fürstenrieder Str. 210<br/>81377 München</p>,,,,48.12082276,11.50188964,0,ALLGUTH,0,20,1,0,0,,a:0:{}
,1,Fürstenrieder Str. 175 81377 München,<p>Fürstenrieder Str. 175<br/>81377 München</p>,,,,48.11966328,11.50326167,0,ALLGUTH,0,20,1,0,0,,a:0:{}
,1,Boschetsrieder Str. 139 81379 München,<p>Boschetsrieder Str. 139<br/>81379 München</p>,,,,48.097958,11.511889,0,ALLGUTH,0,20,1,0,0,,a:0:{}
,1,Landsberger Str. 90 82205 Gilching,<p>Landsberger Str. 90<br/>82205 Gilching</p>,,,,48.09449,11.283,0,ALLGUTH,0,20,1,0,0,,a:0:{}
,1,Kreillerstr. 219 81825 München,<p>Kreillerstr. 219<br/>81825 München</p>,,,,48.12197713,11.66436589,0,ALLGUTH,0,20,1,0,0,,a:0:{}
,1,Dieselstr. 4 85716 Unterschleißheim,<p>Dieselstr. 4<br/>85716 Unterschleißheim</p>,,,,48.28227903,11.57283068,0,ALLGUTH,0,20,1,0,0,,a:0:{}
,1,Georg-Brauchle-Ring 30 80992 München,<p>Georg-Brauchle-Ring 30<br/>80992 München</p>,,,,48.17656409,11.53538704,0,ALLGUTH,0,20,1,0,0,,a:0:{}
,1,Obere Bahnhofstr. 58 82110 Germering,<p>Obere Bahnhofstr. 58<br/>82110 Germering</p>,,,,48.12987,11.35939,0,ALLGUTH,0,20,1,0,0,,a:0:{}
,1,Geiselbullacher Str. 7 82140 Olching,<p>Geiselbullacher Str. 7<br/>82140 Olching</p>,,,,48.22542377,11.3343559,0,ALLGUTH,0,20,1,0,0,,a:0:{}
,1,Hauptstr. 24 85664 Hohenlinden,<p>Hauptstr. 24<br/>85664 Hohenlinden</p>,,,,48.1558408,11.99895322,0,ALLGUTH,0,20,1,0,0,,a:0:{}
,1,Kufsteiner Str. 124 83026 Rosenheim,<p>Kufsteiner Str. 124<br/>83026 Rosenheim</p>,,,,47.8390678,12.119953,0,ALLGUTH,0,20,1,0,0,,a:0:{}
,1,Leutstettener Str. 17 82319 Starnberg,<p>Leutstettener Str. 17<br/>82319 Starnberg</p>,,,,48.005279,11.349703,0,ALLGUTH,0,20,1,0,0,,a:0:{}
,1,Münchener Str. 173 85051 Ingolstadt,<p>Münchener Str. 173<br/>85051 Ingolstadt</p>,,,,48.73523,11.43851,0,ALLGUTH,0,20,1,0,0,,a:0:{}
,1,Am Neubruch 7 80997 München,<p>Am Neubruch 7<br/>80997 München</p>,,,,48.192463,11.499939,0,ALLGUTH,0,20,1,0,0,,a:0:{}
,1,Dieselstr. 100 85774 Unterföhring,<p>Dieselstr. 100<br/>85774 Unterföhring</p>,,,,48.1803522,11.65458441,0,ALLGUTH,0,20,1,0,0,,a:0:{}
,1,Triebstr. 35 80993 München,<p>Triebstr. 35<br/>80993 München</p>,,,,48.18741615,11.53452337,0,ALLGUTH,0,20,1,0,0,,a:0:{}
,1,Maarweg 126 50825 Köln,<p>Maarweg 126<br/>50825 Köln</p>,,,,50.94309,6.898796,0,ARAL,0,2,1,0,0,,a:0:{}
,1,Äußere-Kanal-Str. 90 50827 Köln,<p>Äußere-Kanal-Str. 90<br/>50827 Köln</p>,,,,50.9585342,6.905212,0,ARAL,0,2,1,0,0,,a:0:{}
,1,Leonberger Str. 76 71272 Renningen,<p>Leonberger Str. 76<br/>71272 Renningen</p>,,,,48.7679749,8.944295,0,ARAL,0,2,1,0,0,,a:0:{}
,1,Kölner Str. 36-40 50226 Frechen,<p>Kölner Str. 36-40<br/>50226 Frechen</p>,,,,50.91059,6.817882,0,ARAL,0,2,1,0,0,,a:0:{}
,1,Nebelhornstr. 8 87719 Mindelheim,<p>Nebelhornstr. 8<br/>87719 Mindelheim</p>,,,,48.0360832,10.5013714,0,ARAL,0,2,1,0,0,,a:0:{}
,1,Brücker Landstr. 22a 14806 Belzig,<p>Brücker Landstr. 22a<br/>14806 Belzig</p>,,,,52.1447,12.6128559,0,ARAL,0,2,1,0,0,,a:0:{}
,1,Edisonstr. 14a 86199 Augsburg,<p>Edisonstr. 14a<br/>86199 Augsburg</p>,,,,48.344738,10.8852787,0,ARAL,0,2,1,0,0,,a:0:{}
,1,Görschlitzer Str. 7 4849 Bad Düben,<p>Görschlitzer Str. 7<br/>4849 Bad Düben</p>,,,,51.58997,12.6019516,0,ARAL,0,2,1,0,0,,a:0:{}
,1,Robert-Bosch-Str. 40 88131 Lindau,<p>Robert-Bosch-Str. 40<br/>88131 Lindau</p>,,,,47.5476952,9.728079,0,ARAL,0,2,1,0,0,,a:0:{}
,1,Kaufbeurer Str. 5 86830 Schwabmünchen,<p>Kaufbeurer Str. 5<br/>86830 Schwabmünchen</p>,,,,48.17588,10.7576876,0,ARAL,0,2,1,0,0,,a:0:{}
,1,Wasseralfinger Str. 66 73434 Aalen-Fachsenfeld,<p>Wasseralfinger Str. 66<br/>73434 Aalen-Fachsenfeld</p>,,,,48.8784866,10.0499964,0,ARAL,0,2,1,0,0,,a:0:{}
,1,Bezirksstr. 16 67122 Altrip,<p>Bezirksstr. 16<br/>67122 Altrip</p>,,,,49.434967,8.484531,0,ARAL,0,2,1,0,0,,a:0:{}
,1,Landsberger Str. 20 86807 Buchloe,<p>Landsberger Str. 20<br/>86807 Buchloe</p>,,,,48.03594,10.7324829,0,ARAL,0,2,1,0,0,,a:0:{}
,1,Barmer Str. 44 58332 Schwelm,<p>Barmer Str. 44<br/>58332 Schwelm</p>,,,,51.2806053,7.278696,0,ARAL,0,2,1,0,0,,a:0:{}
,1,Berliner Str. 111 51063 Köln,<p>Berliner Str. 111<br/>51063 Köln</p>,,,,50.9738,7.012554,0,ARAL,0,2,1,0,0,,a:0:{}
,1,Altenberger Str. 93 42929 Wermelskirchen,<p>Altenberger Str. 93<br/>42929 Wermelskirchen</p>,,,,51.091156,7.186871,0,ARAL,0,2,1,0,0,,a:0:{}
,1,Beuchaer Str. 73 4821 Brandis,<p>Beuchaer Str. 73<br/>4821 Brandis</p>,,,,51.3299141,12.5928259,0,ARAL,0,2,1,0,0,,a:0:{}
,1,Bahnhofstr. 57 52388 Nörvenich,<p>Bahnhofstr. 57<br/>52388 Nörvenich</p>,,,,50.8097343,6.636635,0,ARAL,0,2,1,0,0,,a:0:{}
,1,Kurt-Schumacher-Damm 12 49078 Osnabrück,<p>Kurt-Schumacher-Damm 12<br/>49078 Osnabrück</p>,,,,52.2706223,8.024833,0,ARAL,0,2,1,0,0,,a:0:{}
,1,Pasinger Str. 50 82166 Gräfelfing,<p>Pasinger Str. 50<br/>82166 Gräfelfing</p>,,,,48.1181,11.44267,0,ARAL,0,2,1,0,0,,a:0:{}
,1,Neckaraue 2 71686 Remseck,<p>Neckaraue 2<br/>71686 Remseck</p>,,,,48.8901978,9.271213,0,ARAL,0,2,1,0,0,,a:0:{}
,1,Bottroper Str. 298a 45356 Essen,<p>Bottroper Str. 298a<br/>45356 Essen</p>,,,,51.4843674,6.975781,0,ARAL,0,2,1,0,0,,a:0:{}
,1,Haunstetter Str. 75 86161 Augsburg,<p>Haunstetter Str. 75<br/>86161 Augsburg</p>,,,,48.3462753,10.905344,0,ARAL,0,2,1,0,0,,a:0:{}
,1,Ulmer Str. 13 89340 Leipheim,<p>Ulmer Str. 13<br/>89340 Leipheim</p>,,,,48.4458847,10.21254,0,ARAL,0,2,1,0,0,,a:0:{}
,1,Oberstdorfer Str. 13 87435 Kempten,<p>Oberstdorfer Str. 13<br/>87435 Kempten</p>,,,,47.70613,10.3116608,0,ARAL,0,2,1,0,0,,a:0:{}
,1,Friedberger Str. 471/4 86161 Augsburg,<p>Friedberger Str. 471/4<br/>86161 Augsburg</p>,,,,48.35563,10.9190016,0,ARAL,0,2,1,0,0,,a:0:{}
,1,Leipziger Str. 266 34260 Kaufungen,<p>Leipziger Str. 266<br/>34260 Kaufungen</p>,,,,51.28422,9.602628,0,ARAL,0,2,1,0,0,,a:0:{}
,1,Fautenbacher Str. 22 77855 Achern,<p>Fautenbacher Str. 22<br/>77855 Achern</p>,,,,48.6285133,8.063374,0,ARAL,0,2,1,0,0,,a:0:{}
,1,Boltensternstr. 350 50735 Köln,<p>Boltensternstr. 350<br/>50735 Köln</p>,,,,50.980299,6.970215,0,ARAL,0,2,1,0,0,,a:0:{}
,1,Freienhufener Str. 21 1983 Großräschen,<p>Freienhufener Str. 21<br/>1983 Großräschen</p>,,,,51.5857735,14.0026836,0,ARAL,0,2,1,0,0,,a:0:{}
,1,Berliner Str. 170 45144 Essen,<p>Berliner Str. 170<br/>45144 Essen</p>,,,,51.4524536,6.972793,0,ARAL,0,2,1,0,0,,a:0:{}
,1,Riedlinger Str. 67 88422 Bad Buchau,<p>Riedlinger Str. 67<br/>88422 Bad Buchau</p>,,,,48.0598946,9.594575,0,ARAL,0,2,1,0,0,,a:0:{}
,1,Düsseldorfer Str. 491 51061 Köln,<p>Düsseldorfer Str. 491<br/>51061 Köln</p>,,,,50.98954,6.998822,0,ARAL,0,2,1,0,0,,a:0:{}
,1,Merscheider Str. 150 42699 Solingen,<p>Merscheider Str. 150<br/>42699 Solingen</p>,,,,51.165339,7.025495,0,BFT,0,8,1,0,0,,a:0:{}
,1,Züricher Str. 46 28325 Bremen,<p>Züricher Str. 46<br/>28325 Bremen</p>,,,,53.0668,8.94228,0,BFT,0,8,1,0,0,,a:0:{}
,1,Friedrich-Karl-Str. 90 50735 Köln,<p>Friedrich-Karl-Str. 90<br/>50735 Köln</p>,,,,50.974345,6.958375,0,BFT,0,8,1,0,0,,a:0:{}
,1,Brunnenstr. 121 32584 Löhne,<p>Brunnenstr. 121<br/>32584 Löhne</p>,,,,52.1851,8.69447,0,BFT,0,8,1,0,0,,a:0:{}
,1,Neue Str. 3 37643 Negenborn,<p>Neue Str. 3<br/>37643 Negenborn</p>,,,,51.8848,9.56591,0,BFT,0,8,1,0,0,,a:0:{}
,1,Bahnhofstr. 46 32105 Bad Salzuflen,<p>Bahnhofstr. 46<br/>32105 Bad Salzuflen</p>,,,,52.0813,8.74293,0,BFT,0,8,1,0,0,,a:0:{}
,1,Wilhelmshöhe 3 56766 Auderath,<p>Wilhelmshöhe 3<br/>56766 Auderath</p>,,,,50.19128374,7.017785311,0,BFT,0,8,1,0,0,,a:0:{}
,1,Sebastianstr. 104 53474 Bad Neuenahr,<p>Sebastianstr. 104<br/>53474 Bad Neuenahr</p>,,,,50.5455,7.12072,0,BFT,0,8,1,0,0,,a:0:{}
,1,Gotenstr. 4 33647 Bielefeld,<p>Gotenstr. 4<br/>33647 Bielefeld</p>,,,,51.9894,8.51,0,BFT,0,8,1,0,0,,a:0:{}
,1,Osterholzer Heerstr. 161 28307 Bremen,<p>Osterholzer Heerstr. 161<br/>28307 Bremen</p>,,,,53.0578,8.9483,0,BFT,0,8,1,0,0,,a:0:{}
,1,Karlstr. 7 51379 Leverkusen,<p>Karlstr. 7<br/>51379 Leverkusen</p>,,,,51.062,7.00481,0,BFT,0,8,1,0,0,,a:0:{}
,1,Hovestr. 40-42 48431 Rheine,<p>Hovestr. 40-42<br/>48431 Rheine</p>,,,,52.2729,7.44058,0,BFT,0,8,1,0,0,,a:0:{}
,1,Allersheimer Str. 5a 37603 Holzminden,<p>Allersheimer Str. 5a<br/>37603 Holzminden</p>,,,,51.8318,9.45416,0,BFT,0,8,1,0,0,,a:0:{}
,1,Heeper Str. 294 33607 Bielefeld,<p>Heeper Str. 294<br/>33607 Bielefeld</p>,,,,52.0282,8.57581,0,BFT,0,8,1,0,0,,a:0:{}
,1,Südenmauer 2 59227 Ahlen,<p>Südenmauer 2<br/>59227 Ahlen</p>,,,,51.7613,7.88988,0,BFT,0,8,1,0,0,,a:0:{}
,1,Wernesgrüner Str. 39 c 8228 Rodewisch,<p>Wernesgrüner Str. 39 c<br/>8228 Rodewisch</p>,,,,50.5323,12.4315,0,BFT,0,8,1,0,0,,a:0:{}
,1,Blankenburger Str. 36 13156 Berlin,<p>Blankenburger Str. 36<br/>13156 Berlin</p>,,,,52.582,13.4096,0,BFT,0,8,1,0,0,,a:0:{}
,1,Hauptstr. 43 33758 Schloß Holte-Stukenbrock,<p>Hauptstr. 43<br/>33758 Schloß Holte-Stukenbrock</p>,,,,51.90887702,8.663936377,0,BFT,0,8,1,0,0,,a:0:{}
,1,Gildehauser Str. 101 48599 Gronau,<p>Gildehauser Str. 101<br/>48599 Gronau</p>,,,,52.2177,7.03501,0,BFT,0,8,1,0,0,,a:0:{}
,1,Mühlenstr. 96 25421 Pinneberg,<p>Mühlenstr. 96<br/>25421 Pinneberg</p>,,,,53.6577,9.7768,0,BFT,0,8,1,0,0,,a:0:{}
,1,Dessauer Chaussee 11 6385 Aken,<p>Dessauer Chaussee 11<br/>6385 Aken</p>,,,,51.8537,12.0554,0,BFT,0,8,1,0,0,,a:0:{}
,1,Arnold-Overbeck-Str. 67 47139 Duisburg,<p>Arnold-Overbeck-Str. 67<br/>47139 Duisburg</p>,,,,51.4835,6.734,0,BFT,0,8,1,0,0,,a:0:{}
,1,Wiedenbrücker Str. 12 33332 Gütersloh,<p>Wiedenbrücker Str. 12<br/>33332 Gütersloh</p>,,,,51.895,8.36781,0,BFT,0,8,1,0,0,,a:0:{}
,1,Torgauer Str. 118 4347 Leipzig,<p>Torgauer Str. 118<br/>4347 Leipzig</p>,,,,51.3568,12.4376,0,BFT,0,8,1,0,0,,a:0:{}
,1,Hasporter Damm 159 27755 Delmenhorst,<p>Hasporter Damm 159<br/>27755 Delmenhorst</p>,,,,53.0341,8.65099,0,BFT,0,8,1,0,0,,a:0:{}
,1,Pampower Str. 5 19061 Schwerin,<p>Pampower Str. 5<br/>19061 Schwerin</p>,,,,53.5892,11.4028,0,BFT,0,8,1,0,0,,a:0:{}
,1,Riesaer Str. 56 4328 Leipzig,<p>Riesaer Str. 56<br/>4328 Leipzig</p>,,,,51.3454,12.4493,0,BFT,0,8,1,0,0,,a:0:{}
,1,Briesker Str. 85 1968 Senftenberg,<p>Briesker Str. 85<br/>1968 Senftenberg</p>,,,,51.50958716,13.97934079,0,BFT,0,8,1,0,0,,a:0:{}
,1,Heikendorfer Weg 79 24248 Mönkeberg,<p>Heikendorfer Weg 79<br/>24248 Mönkeberg</p>,,,,54.3489,10.1879,0,BFT,0,8,1,0,0,,a:0:{}
,1,Hans-Böckler-Str. 66 40764 Langenfeld,<p>Hans-Böckler-Str. 66<br/>40764 Langenfeld</p>,,,,51.12203916,6.924845549,0,BFT,0,8,1,0,0,,a:0:{}
,1,Hauptstr. 150 56170 Bendorf,<p>Hauptstr. 150<br/>56170 Bendorf</p>,,,,50.4263,7.57205,0,BFT,0,8,1,0,0,,a:0:{}
,1,Osnabrücker Str. 158 49479 Ibbenbüren,<p>Osnabrücker Str. 158<br/>49479 Ibbenbüren</p>,,,,52.2849,7.74609,0,BFT,0,8,1,0,0,,a:0:{}
,1,Heidestr. 95 42549 Velbert,<p>Heidestr. 95<br/>42549 Velbert</p>,,,,51.3313,7.04033,0,BFT,0,8,1,0,0,,a:0:{}
,1,Heidbunge 3 24848 Kropp,<p>Heidbunge 3<br/>24848 Kropp</p>,,,,54.3756,9.54714,0,BFT,0,8,1,0,0,,a:0:{}
,1,An Der B 92 1 7957 Langenwetzendorf,<p>An Der B 92 1<br/>7957 Langenwetzendorf</p>,,,,50.717236,12.112013,0,BFT,0,8,1,0,0,,a:0:{}
,1,Baeyerstr. 1 24536 Neumünster,<p>Baeyerstr. 1<br/>24536 Neumünster</p>,,,,54.10063957,9.977758527,0,EDEKA,0,26,1,0,0,,a:0:{}
,1,Münsterstr. 45 49186 Bad Iburg,<p>Münsterstr. 45<br/>49186 Bad Iburg</p>,,,,52.1518,8.038,0,FELTA,0,22,1,0,0,,a:0:{}
,1,Mühlenstr. 30 49401 Damme,<p>Mühlenstr. 30<br/>49401 Damme</p>,,,,52.5231,8.19315,0,FELTA,0,22,1,0,0,,a:0:{}
,1,Bergweg 41 49393 Lohne,<p>Bergweg 41<br/>49393 Lohne</p>,,,,52.6643,8.25677,0,FELTA,0,22,1,0,0,,a:0:{}
,1,Glandorfer Str. 20 48336 Sassenberg,<p>Glandorfer Str. 20<br/>48336 Sassenberg</p>,,,,52.0501,8.03411,0,FELTA,0,22,1,0,0,,a:0:{}
,1,Steinhauser Str. 14 26345 Bockhorn,<p>Steinhauser Str. 14<br/>26345 Bockhorn</p>,,,,53.3955,8.01392,0,FELTA,0,22,1,0,0,,a:0:{}
,1,Hauptstr. 247 28816 Fahrenhorst,<p>Hauptstr. 247<br/>28816 Fahrenhorst</p>,,,,52.9462,8.711,0,FELTA,0,22,1,0,0,,a:0:{}
,1,Celler Str. 25 29525 Uelzen,<p>Celler Str. 25<br/>29525 Uelzen</p>,,,,52.9527,10.5482,0,FELTA,0,22,1,0,0,,a:0:{}
,1,Hohes Ufer 2 49624 Löningen,<p>Hohes Ufer 2<br/>49624 Löningen</p>,,,,52.73138224,7.771730661,0,FELTA,0,22,1,0,0,,a:0:{}
,1,Falkenrotter Str. 163 49377 Vechta,<p>Falkenrotter Str. 163<br/>49377 Vechta</p>,,,,52.73181818,8.264194966,0,FELTA,0,22,1,0,0,,a:0:{}
,1,Visbeker Damm 1b 49429 Visbek,<p>Visbeker Damm 1b<br/>49429 Visbek</p>,,,,52.82668255,8.304237127,0,FELTA,0,22,1,0,0,,a:0:{}
,1,Schapers Kamp 1 31311 Uetze,<p>Schapers Kamp 1<br/>31311 Uetze</p>,,,,52.46504375,10.19028068,0,Famila Tank,0,24,1,0,0,,a:0:{}
,1,Hauptstr. 38 49152 Bad Essen-Rabber,<p>Hauptstr. 38<br/>49152 Bad Essen-Rabber</p>,,,,52.316688,8.408558965,0,Freie Tankstelle,0,25,1,0,0,,a:0:{}
,1,Bielefelder Str. 31 49176 Hilter,<p>Bielefelder Str. 31<br/>49176 Hilter</p>,,,,52.1351,8.1494,0,Freie Tankstelle,0,25,1,0,0,,a:0:{}
,1,Bahnhofstr. 16 56414 Wallmerod,<p>Bahnhofstr. 16<br/>56414 Wallmerod</p>,,,,50.48633709,7.949982762,0,Freie Tankstelle,0,25,1,0,0,,a:0:{}
,1,Hausener Str. 51 56736 Kottenheim,<p>Hausener Str. 51<br/>56736 Kottenheim</p>,,,,50.34359807,7.26224184,0,Freie Tankstelle,0,25,1,0,0,,a:0:{}
,1,Koblenzer Str. 168 56727 Mayen,<p>Koblenzer Str. 168<br/>56727 Mayen</p>,,,,50.32699474,7.247527242,0,Freie Tankstelle,0,25,1,0,0,,a:0:{}
,1,Münsterau 215 52224 Stolberg,<p>Münsterau 215<br/>52224 Stolberg</p>,,,,50.73638588,6.267077923,0,Freie Tankstelle,0,25,1,0,0,,a:0:{}
,1,Aalener Str. 36 73441 Bopfingen,<p>Aalener Str. 36<br/>73441 Bopfingen</p>,,,,48.86200095,10.34641743,0,Freie Tankstelle,0,25,1,0,0,,a:0:{}
,1,Hauptstr. 20 15910 Neu Lübbenau,<p>Hauptstr. 20<br/>15910 Neu Lübbenau</p>,,,,52.0753,13.8946,0,Freie Tankstelle,0,25,1,0,0,,a:0:{}
,1,Castroper Str. 174 44791 Bochum,<p>Castroper Str. 174<br/>44791 Bochum</p>,,,,51.489594,7.238667,0,GO,0,12,1,0,0,,a:0:{}
,1,Chausseestr. 32 15345 Lichtenow,<p>Chausseestr. 32<br/>15345 Lichtenow</p>,,,,52.4805,13.9109,0,GO,0,12,1,0,0,,a:0:{}
,1,Dresdner Str. 46 a 1796 Pirna,<p>Dresdner Str. 46 a<br/>1796 Pirna</p>,,,,50.9575,13.9165,0,GO,0,12,1,0,0,,a:0:{}
,1,Müggelpark 35 15537 Gosen,<p>Müggelpark 35<br/>15537 Gosen</p>,,,,52.3962,13.7206,0,GO,0,12,1,0,0,,a:0:{}
,1,Jesteburger Chaussee 19 21227 Bendestorf,<p>Jesteburger Chaussee 19<br/>21227 Bendestorf</p>,,,,53.335552,9.984544,0,GO,0,12,1,0,0,,a:0:{}
,1,Perleberger Str. 90/91 19322 Wittenberge,<p>Perleberger Str. 90/91<br/>19322 Wittenberge</p>,,,,53.01,11.7595,0,GO,0,12,1,0,0,,a:0:{}
,1,Rumburger Str. 3 2708 Löbau,<p>Rumburger Str. 3<br/>2708 Löbau</p>,,,,51.0841,14.6608,0,GO,0,12,1,0,0,,a:0:{}
,1,Jahnstr. 23 6766 Wolfen,<p>Jahnstr. 23<br/>6766 Wolfen</p>,,,,51.6519,12.2639,0,GO,0,12,1,0,0,,a:0:{}
,1,Woltersdorfer Str. 1 15562 Rüdersdorf,<p>Woltersdorfer Str. 1<br/>15562 Rüdersdorf</p>,,,,52.4655,13.8057,0,GO,0,12,1,0,0,,a:0:{}
,1,Dresdner Str. 17 1936 Schwepnitz,<p>Dresdner Str. 17<br/>1936 Schwepnitz</p>,,,,51.3282,13.9552,0,GO,0,12,1,0,0,,a:0:{}
,1,Zwickauer Str. 184 9116 Chemnitz,<p>Zwickauer Str. 184<br/>9116 Chemnitz</p>,,,,50.8217,12.8853,0,GO,0,12,1,0,0,,a:0:{}
,1,Bautzner Str. 9 2763 Oppach,<p>Bautzner Str. 9<br/>2763 Oppach</p>,,,,51.0612,14.4993,0,GO,0,12,1,0,0,,a:0:{}
,1,Zittauer Str. 58 2742 Neusalza-Spremberg,<p>Zittauer Str. 58<br/>2742 Neusalza-Spremberg</p>,,,,51.0364,14.5441,0,GO,0,12,1,0,0,,a:0:{}
,1,Hoyerswerdaer Str. 43 2994 Bernsdorf,<p>Hoyerswerdaer Str. 43<br/>2994 Bernsdorf</p>,,,,51.3827,14.0808,0,GO,0,12,1,0,0,,a:0:{}
,1,Gewerbegebiet Nord 1 9456 Mildenau,<p>Gewerbegebiet Nord 1<br/>9456 Mildenau</p>,,,,50.6003,13.0626,0,GO,0,12,1,0,0,,a:0:{}
,1,Forderstedter Str. 7 39418 Stassfurt,<p>Forderstedter Str. 7<br/>39418 Stassfurt</p>,,,,51.8642,11.5967,0,GO,0,12,1,0,0,,a:0:{}
,1,Charlottenburger Str. 61 22045 Hamburg,<p>Charlottenburger Str. 61<br/>22045 Hamburg</p>,,,,53.581608,10.138535,0,GO,0,12,1,0,0,,a:0:{}
,1,Magdeburger Chaussee 1b 6406 Bernburg,<p>Magdeburger Chaussee 1b<br/>6406 Bernburg</p>,,,,51.81,11.7241,0,GO,0,12,1,0,0,,a:0:{}
,1,Wasserburger Landstr. 285 81827 München,<p>Wasserburger Landstr. 285<br/>81827 München</p>,,,,48.11121,11.71303,0,HEM,0,1,1,0,0,,a:0:{}
,1,Geniner Str. 72-74 23560 Lübeck,<p>Geniner Str. 72-74<br/>23560 Lübeck</p>,,,,53.848778,10.675396,0,HEM,0,1,1,0,0,,a:0:{}
,1,Poststr. 21 22956 Grönwohld,<p>Poststr. 21<br/>22956 Grönwohld</p>,,,,53.639275,10.409563,0,HEM,0,1,1,0,0,,a:0:{}
,1,August-Bebel-Damm 7 39126 Magdeburg,<p>August-Bebel-Damm 7<br/>39126 Magdeburg</p>,,,,52.175564,11.665378,0,HEM,0,1,1,0,0,,a:0:{}
,1,Gewerbestr. 25 39167 Irxleben,<p>Gewerbestr. 25<br/>39167 Irxleben</p>,,,,52.170837,11.48509,0,HEM,0,1,1,0,0,,a:0:{}
,1,Bültenweg 46 38106 Braunschweig,<p>Bültenweg 46<br/>38106 Braunschweig</p>,,,,52.282253,10.537219,0,HEM,0,1,1,0,0,,a:0:{}
,1,Wittestr. 16 13509 Berlin,<p>Wittestr. 16<br/>13509 Berlin</p>,,,,52.577587,13.306636,0,HEM,0,1,1,0,0,,a:0:{}
,1,Dorfstr. 1a 16341 Panketal,<p>Dorfstr. 1a<br/>16341 Panketal</p>,,,,52.620937,13.542302,0,HEM,0,1,1,0,0,,a:0:{}
,1,Huntetor 10 27793 Wildeshausen,<p>Huntetor 10<br/>27793 Wildeshausen</p>,,,,52.89917,8.443696,0,HEM,0,1,1,0,0,,a:0:{}
,1,Westring 28 27793 Wildeshausen,<p>Westring 28<br/>27793 Wildeshausen</p>,,,,52.88793,8.418403,0,HEM,0,1,1,0,0,,a:0:{}
,1,Bürgermeister Wegele Str. 15 86167 Augsburg,<p>Bürgermeister Wegele Str. 15<br/>86167 Augsburg</p>,,,,48.397915,10.926272,0,HEM,0,1,1,0,0,,a:0:{}
,1,Sulzbacher Str. 152 71522 Backnang,<p>Sulzbacher Str. 152<br/>71522 Backnang</p>,,,,48.957054,9.430753,0,HEM,0,1,1,0,0,,a:0:{}
,1,Weinstr. 63 76887 Bad Bergzabern,<p>Weinstr. 63<br/>76887 Bad Bergzabern</p>,,,,49.101067,8.00035,0,HEM,0,1,1,0,0,,a:0:{}
,1,Rissener Str. 96-100 22880 Wedel,<p>Rissener Str. 96-100<br/>22880 Wedel</p>,,,,53.583614,9.724348,0,HEM,0,1,1,0,0,,a:0:{}
,1,Bahnhofstr. 17 31698 Lindhorst,<p>Bahnhofstr. 17<br/>31698 Lindhorst</p>,,,,52.35612,9.284778,0,HEM,0,1,1,0,0,,a:0:{}
,1,Skandinaviendamm 301 24109 Kiel,<p>Skandinaviendamm 301<br/>24109 Kiel</p>,,,,54.32043,10.051192,0,HEM,0,1,1,0,0,,a:0:{}
,1,Ebendorfer Chaussee 72 39128 Magdeburg,<p>Ebendorfer Chaussee 72<br/>39128 Magdeburg</p>,,,,52.16710444,11.60946024,0,HEM,0,1,1,0,0,,a:0:{}
,1,Kasseler Str. 55 99817 Eisenach,<p>Kasseler Str. 55<br/>99817 Eisenach</p>,,,,50.981205,10.301261,0,HEM,0,1,1,0,0,,a:0:{}
,1,Hannoversche Str. 74 30926 Seelze,<p>Hannoversche Str. 74<br/>30926 Seelze</p>,,,,52.392,9.609641,0,HEM,0,1,1,0,0,,a:0:{}
,1,Frankenforster Str. 12 51427 Bergisch Gladbach,<p>Frankenforster Str. 12<br/>51427 Bergisch Gladbach</p>,,,,50.958908,7.14286,0,HEM,0,1,1,0,0,,a:0:{}
,1,Mecklenheidestr. 77 30419 Hannover,<p>Mecklenheidestr. 77<br/>30419 Hannover</p>,,,,52.4158,9.678132,0,HEM,0,1,1,0,0,,a:0:{}
,1,Triftweg 47 38350 Helmstedt,<p>Triftweg 47<br/>38350 Helmstedt</p>,,,,52.23373,10.99888,0,HEM,0,1,1,0,0,,a:0:{}
,1,Waldstr. 172 68305 Mannheim,<p>Waldstr. 172<br/>68305 Mannheim</p>,,,,49.523167,8.502237,0,HEM,0,1,1,0,0,,a:0:{}
,1,Rheinallee 187 55120 Mainz,<p>Rheinallee 187<br/>55120 Mainz</p>,,,,50.024284,8.232127,0,HEM,0,1,1,0,0,,a:0:{}
,1,Salzgitterstr. 35 99867 Gotha,<p>Salzgitterstr. 35<br/>99867 Gotha</p>,,,,50.94195,10.730914,0,HEM,0,1,1,0,0,,a:0:{}
,1,Bremer Str. 69 30826 Garbsen,<p>Bremer Str. 69<br/>30826 Garbsen</p>,,,,52.439148,9.588605,0,HEM,0,1,1,0,0,,a:0:{}
,1,Werdohler Str. 2 17153 Reuterstadt Stavenhagen,<p>Werdohler Str. 2<br/>17153 Reuterstadt Stavenhagen</p>,,,,53.68856,12.919021,0,HEM,0,1,1,0,0,,a:0:{}
,1,Goldbachstr. 19c 9353 Oberlungwitz,<p>Goldbachstr. 19c<br/>9353 Oberlungwitz</p>,,,,50.791077,12.69713,0,HEM,0,1,1,0,0,,a:0:{}
,1,Stolpener Str. 2 1477 Arnsdorf,<p>Stolpener Str. 2<br/>1477 Arnsdorf</p>,,,,51.097607,13.987778,0,HEM,0,1,1,0,0,,a:0:{}
,1,Eschleber Str. 37 99867 Gotha,<p>Eschleber Str. 37<br/>99867 Gotha</p>,,,,50.94984,10.685813,0,HEM,0,1,1,0,0,,a:0:{}
,1,Herner Str. 100 44575 Castrop-Rauxel,<p>Herner Str. 100<br/>44575 Castrop-Rauxel</p>,,,,51.55048,7.299336,0,HEM,0,1,1,0,0,,a:0:{}
,1,Saarlandstr. 2 25421 Pinneberg,<p>Saarlandstr. 2<br/>25421 Pinneberg</p>,,,,53.658524,9.78713,0,HEM,0,1,1,0,0,,a:0:{}
,1,Helmstedter Str. 9 38368 Querenhorst,<p>Helmstedter Str. 9<br/>38368 Querenhorst</p>,,,,52.337368,10.960992,0,HEM,0,1,1,0,0,,a:0:{}
,1,Wendenring 30 38114 Braunschweig,<p>Wendenring 30<br/>38114 Braunschweig</p>,,,,52.27465,10.516511,0,HEM,0,1,1,0,0,,a:0:{}
,1,Berliner Str. 21a 39175 Biederitz,<p>Berliner Str. 21a<br/>39175 Biederitz</p>,,,,52.144756,11.736799,0,HEM,0,1,1,0,0,,a:0:{}
,1,Kaulsdorfer Str. 124-126 12555 Berlin,<p>Kaulsdorfer Str. 124-126<br/>12555 Berlin</p>,,,,52.471977,13.57143,0,HEM,0,1,1,0,0,,a:0:{}
,1,Hamburger Landstr. 23 21465 Wentorf,<p>Hamburger Landstr. 23<br/>21465 Wentorf</p>,,,,53.48917,10.244422,0,HEM,0,1,1,0,0,,a:0:{}
,1,Hildesheimer Str. 22 31174 Schellerten,<p>Hildesheimer Str. 22<br/>31174 Schellerten</p>,,,,52.172283,10.039196,0,HEM,0,1,1,0,0,,a:0:{}
,1,Str. Der Freundschaft 58a 17438 Wolgast,<p>Str. Der Freundschaft 58a<br/>17438 Wolgast</p>,,,,54.059036,13.807712,0,HEM,0,1,1,0,0,,a:0:{}
,1,Schopsdorfer Chaussee 22 14793 Ziesar,<p>Schopsdorfer Chaussee 22<br/>14793 Ziesar</p>,,,,52.268806,12.284264,0,HEM,0,1,1,0,0,,a:0:{}
,1,Bochumer Str. 110 44625 Herne,<p>Bochumer Str. 110<br/>44625 Herne</p>,,,,51.528954,7.219587,0,HEM,0,1,1,0,0,,a:0:{}
,1,Attilastr. 124 12105 Berlin,<p>Attilastr. 124<br/>12105 Berlin</p>,,,,52.449085,13.366024,0,HEM,0,1,1,0,0,,a:0:{}
,1,Dieskaustr. 155 4249 Leipzig,<p>Dieskaustr. 155<br/>4249 Leipzig</p>,,,,51.307774,12.3271,0,HEM,0,1,1,0,0,,a:0:{}
,1,Carl-Zeiss-Str. 2 37308 Heilbad Heiligenstadt,<p>Carl-Zeiss-Str. 2<br/>37308 Heilbad Heiligenstadt</p>,,,,51.38506,10.16562,0,HEM,0,1,1,0,0,,a:0:{}
,1,Sülzer Str. 17 18195 Tessin,<p>Sülzer Str. 17<br/>18195 Tessin</p>,,,,54.030666,12.470046,0,HEM,0,1,1,0,0,,a:0:{}
,1,Vockenhauser Str. 14 78048 Villingen-Schwenningen,<p>Vockenhauser Str. 14<br/>78048 Villingen-Schwenningen</p>,,,,48.070774,8.457309,0,HEM,0,1,1,0,0,,a:0:{}
,1,An Der B184 6803 Greppin,<p>An Der B184<br/>6803 Greppin</p>,,,,51.63822,12.278874,0,HEM,0,1,1,0,0,,a:0:{}
,1,Gewerbepark Cité 8 76532 Baden-Baden,<p>Gewerbepark Cité 8<br/>76532 Baden-Baden</p>,,,,48.783974,8.194294,0,HEM,0,1,1,0,0,,a:0:{}
,1,Zähringer Str. 43 79108 Freiburg,<p>Zähringer Str. 43<br/>79108 Freiburg</p>,,,,48.016953,7.8563333,0,HEM,0,1,1,0,0,,a:0:{}
,1,Güsener Str. 1 39317 Parey,<p>Güsener Str. 1<br/>39317 Parey</p>,,,,52.376904,11.983637,0,HEM,0,1,1,0,0,,a:0:{}
,1,Hunsrückhöhenstr. 9 56154 Boppard,<p>Hunsrückhöhenstr. 9<br/>56154 Boppard</p>,,,,50.21398,7.549536,0,HEM,0,1,1,0,0,,a:0:{}
,1,Vor Dem Celler Tor 25 31303 Burgdorf,<p>Vor Dem Celler Tor 25<br/>31303 Burgdorf</p>,,,,52.455284,10.01268,0,HEM,0,1,1,0,0,,a:0:{}
,1,Zur Weierhalde 1 88662 Überlingen,<p>Zur Weierhalde 1<br/>88662 Überlingen</p>,,,,47.77432,9.191655,0,HEM,0,1,1,0,0,,a:0:{}
,1,Schweriner Str. 3c 19061 Schwerin,<p>Schweriner Str. 3c<br/>19061 Schwerin</p>,,,,53.585888,11.400054,0,HEM,0,1,1,0,0,,a:0:{}
,1,Geldertor 1 47608 Geldern,<p>Geldertor 1<br/>47608 Geldern</p>,,,,51.51502,6.327776,0,HEM,0,1,1,0,0,,a:0:{}
,1,Im Schleeke 45 38642 Goslar,<p>Im Schleeke 45<br/>38642 Goslar</p>,,,,51.909966,10.470509,0,HEM,0,1,1,0,0,,a:0:{}
,1,Hildesheimer Str. 33 31162 Bad Salzdetfurth,<p>Hildesheimer Str. 33<br/>31162 Bad Salzdetfurth</p>,,,,52.09483,10.017529,0,HEM,0,1,1,0,0,,a:0:{}
,1,Brüsseler Str. 2 65552 Limburg,<p>Brüsseler Str. 2<br/>65552 Limburg</p>,,,,50.38089,8.090597,0,HEM,0,1,1,0,0,,a:0:{}
,1,Ihlpohler Heerstr. 47 27721 Ritterhude,<p>Ihlpohler Heerstr. 47<br/>27721 Ritterhude</p>,,,,53.18526,8.706642,0,HEM,0,1,1,0,0,,a:0:{}
,1,Herrmannstr. 55 25821 Bredstedt,<p>Herrmannstr. 55<br/>25821 Bredstedt</p>,,,,54.62304,8.966978,0,HEM,0,1,1,0,0,,a:0:{}
,1,Schulenburger Landstr. 128 30165 Hannover,<p>Schulenburger Landstr. 128<br/>30165 Hannover</p>,,,,52.40654187,9.711157344,0,HEM,0,1,1,0,0,,a:0:{}
,1,Dessauer Landstr. 82 6385 Aken,<p>Dessauer Landstr. 82<br/>6385 Aken</p>,,,,51.85028,12.089252,0,HEM,0,1,1,0,0,,a:0:{}
,1,Hafenstr. 28-30 27576 Bremerhaven,<p>Hafenstr. 28-30<br/>27576 Bremerhaven</p>,,,,53.55150697,8.581420601,0,HEM,0,1,1,0,0,,a:0:{}
,1,Heinrich-Von-Kleist-Str. 16 68766 Hockenheim,<p>Heinrich-Von-Kleist-Str. 16<br/>68766 Hockenheim</p>,,,,49.311466,8.556791,0,HEM,0,1,1,0,0,,a:0:{}
,1,Süllbergstr. 2 31832 Springe,<p>Süllbergstr. 2<br/>31832 Springe</p>,,,,52.239048,9.655892,0,HEM,0,1,1,0,0,,a:0:{}
,1,Alte Bundesstr. 9a 27616 Beverstedt,<p>Alte Bundesstr. 9a<br/>27616 Beverstedt</p>,,,,53.43609,8.818669,0,HEM,0,1,1,0,0,,a:0:{}
,1,Reichenbacher Str. 142a 8056 Zwickau,<p>Reichenbacher Str. 142a<br/>8056 Zwickau</p>,,,,50.709282,12.465172,0,HEM,0,1,1,0,0,,a:0:{}
,1,Mergentheimer Str. 65 97084 Würzburg,<p>Mergentheimer Str. 65<br/>97084 Würzburg</p>,,,,49.766354,9.946961,0,HEM,0,1,1,0,0,,a:0:{}
,1,Berliner Str. 140 13467 Berlin,<p>Berliner Str. 140<br/>13467 Berlin</p>,,,,52.613346,13.315172,0,HEM,0,1,1,0,0,,a:0:{}
,1,Winsener Str. 183 21077 Hamburg,<p>Winsener Str. 183<br/>21077 Hamburg</p>,,,,53.42817,9.982473,0,HEM,0,1,1,0,0,,a:0:{}
,1,Johann-Gottlob-Nathusius-Str. 14 39340 Haldensleben,<p>Johann-Gottlob-Nathusius-Str. 14<br/>39340 Haldensleben</p>,,,,52.281734,11.432491,0,HEM,0,1,1,0,0,,a:0:{}
,1,Preysingstr. 58 43952 85283 Wolnzach,<p>Preysingstr. 58 43952<br/>85283 Wolnzach</p>,,,,48.59724,11.63034,0,HEM,0,1,1,0,0,,a:0:{}
,1,Dresdner Str. 49 1796 Pirna,<p>Dresdner Str. 49<br/>1796 Pirna</p>,,,,50.95647,13.913139,0,HEM,0,1,1,0,0,,a:0:{}
,1,Zabel-Krüger-Damm 20 13469 Berlin,<p>Zabel-Krüger-Damm 20<br/>13469 Berlin</p>,,,,52.608665,13.327813,0,HEM,0,1,1,0,0,,a:0:{}
,1,Im Loffenkamp 2 31832 Springe,<p>Im Loffenkamp 2<br/>31832 Springe</p>,,,,52.171078,9.671846,0,HEM,0,1,1,0,0,,a:0:{}
,1,Kieler Str. 361-365 22525 Hamburg,<p>Kieler Str. 361-365<br/>22525 Hamburg</p>,,,,53.58875,9.930771,0,HEM,0,1,1,0,0,,a:0:{}
,1,Rosa-Luxemburg-Str. 20a 39319 Jerichow,<p>Rosa-Luxemburg-Str. 20a<br/>39319 Jerichow</p>,,,,52.49291,12.031032,0,HEM,0,1,1,0,0,,a:0:{}
,1,Südliche Hauptstr. 8 83700 Rottach-Egern,<p>Südliche Hauptstr. 8<br/>83700 Rottach-Egern</p>,,,,47.68914,11.768931,0,HEM,0,1,1,0,0,,a:0:{}
,1,Hannoversche Str. 16 31675 Bückeburg,<p>Hannoversche Str. 16<br/>31675 Bückeburg</p>,,,,52.264214,9.062632,0,HEM,0,1,1,0,0,,a:0:{}
,1,Tangstedter Landstr. 516 22851 Norderstedt,<p>Tangstedter Landstr. 516<br/>22851 Norderstedt</p>,,,,53.68593,10.035195,0,HEM,0,1,1,0,0,,a:0:{}
,1,Romantische Str. 14 86763 Möttingen,<p>Romantische Str. 14<br/>86763 Möttingen</p>,,,,48.810783,10.586646,0,HEM,0,1,1,0,0,,a:0:{}
,1,Gutenbergstr. 43891 21509 Glinde,<p>Gutenbergstr. 43891<br/>21509 Glinde</p>,,,,53.524467,10.228421,0,HEM,0,1,1,0,0,,a:0:{}
,1,Bundesstr. 4 79379 Müllheim,<p>Bundesstr. 4<br/>79379 Müllheim</p>,,,,47.8116,7.6102,0,HEM,0,1,1,0,0,,a:0:{}
,1,Döberitzer Str. 5a 14727 Premnitz,<p>Döberitzer Str. 5a<br/>14727 Premnitz</p>,,,,52.560085,12.328859,0,HEM,0,1,1,0,0,,a:0:{}
,1,Bremer Str. 117a 28816 Stuhr,<p>Bremer Str. 117a<br/>28816 Stuhr</p>,,,,53.030586,8.807484,0,HEM,0,1,1,0,0,,a:0:{}
,1,Göttinger Str. 50 31061 Alfeld,<p>Göttinger Str. 50<br/>31061 Alfeld</p>,,,,51.97648,9.814572,0,HEM,0,1,1,0,0,,a:0:{}
,1,Gronauer Str. 1 31036 Eime,<p>Gronauer Str. 1<br/>31036 Eime</p>,,,,52.078453,9.727583,0,HEM,0,1,1,0,0,,a:0:{}
,1,Industriestr. 29 7907 Schleiz,<p>Industriestr. 29<br/>7907 Schleiz</p>,,,,50.549316,11.788847,0,HEM,0,1,1,0,0,,a:0:{}
,1,Braunschweiger Str. 57 38259 Salzgitter,<p>Braunschweiger Str. 57<br/>38259 Salzgitter</p>,,,,52.048626,10.365053,0,HEM,0,1,1,0,0,,a:0:{}
,1,Sierksdorfer Str. 4a 23730 Neustadt In Holstein,<p>Sierksdorfer Str. 4a<br/>23730 Neustadt In Holstein</p>,,,,54.097954,10.790795,0,HEM,0,1,1,0,0,,a:0:{}
,1,Buxtehuder Str. 20 21698 Harsefeld,<p>Buxtehuder Str. 20<br/>21698 Harsefeld</p>,,,,53.45517,9.509766,0,HEM,0,1,1,0,0,,a:0:{}
,1,Gökerstr. 119 26384 Wilhelmshaven,<p>Gökerstr. 119<br/>26384 Wilhelmshaven</p>,,,,53.53710274,8.124574154,0,HEM,0,1,1,0,0,,a:0:{}
,1,Industriestr. 51 67063 Ludwigshafen,<p>Industriestr. 51<br/>67063 Ludwigshafen</p>,,,,49.4884,8.4048,0,HEM,0,1,1,0,0,,a:0:{}
,1,Hannoversche Str. 53 31180 Giesen,<p>Hannoversche Str. 53<br/>31180 Giesen</p>,,,,52.201145,9.91655,0,HEM,0,1,1,0,0,,a:0:{}
,1,Hauptstr. 11 21643 Beckdorf,<p>Hauptstr. 11<br/>21643 Beckdorf</p>,,,,53.413944,9.611062,0,HEM,0,1,1,0,0,,a:0:{}
,1,Hauptstr. 17 21755 Hechthausen,<p>Hauptstr. 17<br/>21755 Hechthausen</p>,,,,53.64062,9.240054,0,HEM,0,1,1,0,0,,a:0:{}
,1,Im Gewerbegebiet 2 38315 Schladen,<p>Im Gewerbegebiet 2<br/>38315 Schladen</p>,,,,52.02925,10.535395,0,HEM,0,1,1,0,0,,a:0:{}
,1,Eislebener Str. 38e 6268 Querfurt,<p>Eislebener Str. 38e<br/>6268 Querfurt</p>,,,,51.38845,11.592364,0,HEM,0,1,1,0,0,,a:0:{}
,1,Möllner Landstr. 4 22113 Oststeinbek,<p>Möllner Landstr. 4<br/>22113 Oststeinbek</p>,,,,53.54208,10.157198,0,HEM,0,1,1,0,0,,a:0:{}
,1,Pyrmonter Str. 48 33014 Bad Driburg,<p>Pyrmonter Str. 48<br/>33014 Bad Driburg</p>,,,,51.74137027,9.01936233,0,HEM,0,1,1,0,0,,a:0:{}
,1,Kattowitzer Str. 233 38226 Salzgitter,<p>Kattowitzer Str. 233<br/>38226 Salzgitter</p>,,,,52.159172,10.318422,0,HEM,0,1,1,0,0,,a:0:{}
,1,Reinstorfer Str. 9a 23992 Neukloster,<p>Reinstorfer Str. 9a<br/>23992 Neukloster</p>,,,,53.860306,11.676482,0,HEM,0,1,1,0,0,,a:0:{}
,1,Adlergestell 305 12489 Berlin,<p>Adlergestell 305<br/>12489 Berlin</p>,,,,52.43057,13.549101,0,HEM,0,1,1,0,0,,a:0:{}
,1,Nordring 62 47574 Goch,<p>Nordring 62<br/>47574 Goch</p>,,,,51.682766,6.148046,0,HEM,0,1,1,0,0,,a:0:{}
,1,Hamburger Tor 11c 19288 Ludwigslust,<p>Hamburger Tor 11c<br/>19288 Ludwigslust</p>,,,,53.319298,11.474188,0,HEM,0,1,1,0,0,,a:0:{}
,1,Wildeshauser Str. 52 26197 Großenkneten,<p>Wildeshauser Str. 52<br/>26197 Großenkneten</p>,,,,52.898163,8.235013,0,HEM,0,1,1,0,0,,a:0:{}
,1,Vilbeler Landstr. 237-239 60388 Frankfurt,<p>Vilbeler Landstr. 237-239<br/>60388 Frankfurt</p>,,,,50.156105,8.746083,0,HEM,0,1,1,0,0,,a:0:{}
,1,Frankenstr. 11 93059 Regensburg,<p>Frankenstr. 11<br/>93059 Regensburg</p>,,,,49.028034,12.094572,0,HEM,0,1,1,0,0,,a:0:{}
,1,Dorfstr. 8b 19406 Holzendorf,<p>Dorfstr. 8b<br/>19406 Holzendorf</p>,,,,53.676582,11.874316,0,HEM,0,1,1,0,0,,a:0:{}
,1,Kurt-Tucholsky-Str. 33e 16540 Hohen Neuendorf,<p>Kurt-Tucholsky-Str. 33e<br/>16540 Hohen Neuendorf</p>,,,,52.662834,13.27113,0,HEM,0,1,1,0,0,,a:0:{}
,1,Falkenseer Str. 162 14621 Schönwalde,<p>Falkenseer Str. 162<br/>14621 Schönwalde</p>,,,,52.607197,13.120824,0,HEM,0,1,1,0,0,,a:0:{}
,1,Werler Landstr. 11 59494 Soest,<p>Werler Landstr. 11<br/>59494 Soest</p>,,,,51.5629268,8.084939502,0,HEM,0,1,1,0,0,,a:0:{}
,1,Cottbuser Str. 33 15907 Lübben,<p>Cottbuser Str. 33<br/>15907 Lübben</p>,,,,51.922264,13.895136,0,HEM,0,1,1,0,0,,a:0:{}
,1,Wisbyring 10 59494 Soest,<p>Wisbyring 10<br/>59494 Soest</p>,,,,51.564342,8.099225,0,HEM,0,1,1,0,0,,a:0:{}
,1,Eggesiner Str. 9e 17358 Torgelow,<p>Eggesiner Str. 9e<br/>17358 Torgelow</p>,,,,53.63714,14.029884,0,HEM,0,1,1,0,0,,a:0:{}
,1,Gahlensche Str. 93 44809 Bochum,<p>Gahlensche Str. 93<br/>44809 Bochum</p>,,,,51.48585,7.194938,0,HEM,0,1,1,0,0,,a:0:{}
,1,Schmolkamp 44 29358 Eicklingen,<p>Schmolkamp 44<br/>29358 Eicklingen</p>,,,,52.544453,10.192661,0,HEM,0,1,1,0,0,,a:0:{}
,1,Triftstr. 15a 6886 Lutherstadt Wittenberg,<p>Triftstr. 15a<br/>6886 Lutherstadt Wittenberg</p>,,,,51.868626,12.674659,0,HEM,0,1,1,0,0,,a:0:{}
,1,Waltersdorfer Chaussee 24 12529 Schönefeld,<p>Waltersdorfer Chaussee 24<br/>12529 Schönefeld</p>,,,,52.39943062,13.51639152,0,HEM,0,1,1,0,0,,a:0:{}
,1,Pritzwalker Str. 30c 16945 Meyenburg,<p>Pritzwalker Str. 30c<br/>16945 Meyenburg</p>,,,,53.30543,12.235293,0,HEM,0,1,1,0,0,,a:0:{}
,1,Peißener Hauptstr. 63 6406 Bernburg (saale),<p>Peißener Hauptstr. 63<br/>6406 Bernburg (saale)</p>,,,,51.74933,11.757449,0,HEM,0,1,1,0,0,,a:0:{}
,1,Genthiner Str. 13a 39307 Parchen,<p>Genthiner Str. 13a<br/>39307 Parchen</p>,,,,52.357307,12.090244,0,HEM,0,1,1,0,0,,a:0:{}
,1,Leerer Str. 7 26655 Westerstede,<p>Leerer Str. 7<br/>26655 Westerstede</p>,,,,53.287666,7.893084,0,HEM,0,1,1,0,0,,a:0:{}
,1,An Der Bundesstr. 19 31061 Alfeld,<p>An Der Bundesstr. 19<br/>31061 Alfeld</p>,,,,52.020805,9.775959,0,HEM,0,1,1,0,0,,a:0:{}
,1,Grabower Landstr. 68 39288 Burg,<p>Grabower Landstr. 68<br/>39288 Burg</p>,,,,52.264908,11.885451,0,HEM,0,1,1,0,0,,a:0:{}
,1,Bundesstr. 32 25495 Kummerfeld,<p>Bundesstr. 32<br/>25495 Kummerfeld</p>,,,,53.6868,9.792267,0,HEM,0,1,1,0,0,,a:0:{}
,1,Lindenhorster Str. 165 44339 Dortmund,<p>Lindenhorster Str. 165<br/>44339 Dortmund</p>,,,,51.546402,7.450238,0,HEM,0,1,1,0,0,,a:0:{}
,1,Fürther Str. 5 91126 Schwabach,<p>Fürther Str. 5<br/>91126 Schwabach</p>,,,,49.331894,11.030839,0,HEM,0,1,1,0,0,,a:0:{}
,1,Verdener Landstr. 182 31582 Nienburg,<p>Verdener Landstr. 182<br/>31582 Nienburg</p>,,,,52.667747,9.224315,0,HEM,0,1,1,0,0,,a:0:{}
,1,Harzstr. 20 37445 Walkenried,<p>Harzstr. 20<br/>37445 Walkenried</p>,,,,51.588238,10.616372,0,HEM,0,1,1,0,0,,a:0:{}
,1,Bernrain-Süd 2 71139 Ehningen,<p>Bernrain-Süd 2<br/>71139 Ehningen</p>,,,,48.66317,8.955444,0,HEM,0,1,1,0,0,,a:0:{}
,1,Friedrich Engels Str. 1b 17367 Eggesin,<p>Friedrich Engels Str. 1b<br/>17367 Eggesin</p>,,,,53.675003,14.097916,0,HEM,0,1,1,0,0,,a:0:{}
,1,Auheimer Str. 12 63450 Hanau,<p>Auheimer Str. 12<br/>63450 Hanau</p>,,,,50.120155,8.927447,0,HEM,0,1,1,0,0,,a:0:{}
,1,Ratzeburger Str. 98 23843 Bad Oldesloe,<p>Ratzeburger Str. 98<br/>23843 Bad Oldesloe</p>,,,,53.804577,10.39783,0,HEM,0,1,1,0,0,,a:0:{}
,1,Alt Engelbostel 11 30855 Langenhagen,<p>Alt Engelbostel 11<br/>30855 Langenhagen</p>,,,,52.447605,9.664085,0,HEM,0,1,1,0,0,,a:0:{}
,1,Str. Vor Schönholz 3 13158 Berlin,<p>Str. Vor Schönholz 3<br/>13158 Berlin</p>,,,,52.576523,13.378789,0,HEM,0,1,1,0,0,,a:0:{}
,1,Friedrich-Ebert-Str. 73 45711 Datteln,<p>Friedrich-Ebert-Str. 73<br/>45711 Datteln</p>,,,,51.65055,7.328353,0,HEM,0,1,1,0,0,,a:0:{}
,1,Prenzlauer Promenade 68 13089 Berlin,<p>Prenzlauer Promenade 68<br/>13089 Berlin</p>,,,,52.56791752,13.42843437,0,HEM,0,1,1,0,0,,a:0:{}
,1,Oldentruper Str. 110 33604 Bielefeld,<p>Oldentruper Str. 110<br/>33604 Bielefeld</p>,,,,52.01198,8.566337,0,HEM,0,1,1,0,0,,a:0:{}
,1,Erich-Ollenhauer-Str. 8 59192 Bergkamen,<p>Erich-Ollenhauer-Str. 8<br/>59192 Bergkamen</p>,,,,51.61884,7.631051,0,HEM,0,1,1,0,0,,a:0:{}
,1,Gutenbergstr. 11 71101 Schönaich,<p>Gutenbergstr. 11<br/>71101 Schönaich</p>,,,,48.6671,9.0721,0,HEM,0,1,1,0,0,,a:0:{}
,1,Dresdner Str. 119 9131 Chemnitz,<p>Dresdner Str. 119<br/>9131 Chemnitz</p>,,,,50.850822,12.952047,0,HEM,0,1,1,0,0,,a:0:{}
,1,Zum Südtor 6 18147 Rostock,<p>Zum Südtor 6<br/>18147 Rostock</p>,,,,54.137836,12.11387,0,HEM,0,1,1,0,0,,a:0:{}
,1,Schweinauer Hauptstr. 145 90441 Nürnberg-Schweinau,<p>Schweinauer Hauptstr. 145<br/>90441 Nürnberg-Schweinau</p>,,,,49.42577,11.04068,0,HEM,0,1,1,0,0,,a:0:{}
,1,Berliner Allee 320 13088 Berlin,<p>Berliner Allee 320<br/>13088 Berlin</p>,,,,52.565453,13.472317,0,HEM,0,1,1,0,0,,a:0:{}
,1,Bahnhofstr. 20 84524 Neuötting,<p>Bahnhofstr. 20<br/>84524 Neuötting</p>,,,,48.245193,12.682111,0,HEM,0,1,1,0,0,,a:0:{}
,1,Akazienstr. 1 23972 Dorf Mecklenburg,<p>Akazienstr. 1<br/>23972 Dorf Mecklenburg</p>,,,,53.852432,11.45646,0,HEM,0,1,1,0,0,,a:0:{}
,1,Obertraublinger Str. 101 93055 Regensburg,<p>Obertraublinger Str. 101<br/>93055 Regensburg</p>,,,,48.98155,12.149654,0,HEM,0,1,1,0,0,,a:0:{}
,1,Hildesheimer Str. 68 38159 Vechelde,<p>Hildesheimer Str. 68<br/>38159 Vechelde</p>,,,,52.259743,10.366192,0,HEM,0,1,1,0,0,,a:0:{}
,1,Alewinstr. 1a 29525 Uelzen,<p>Alewinstr. 1a<br/>29525 Uelzen</p>,,,,52.966324,10.554738,0,HEM,0,1,1,0,0,,a:0:{}
,1,Sonsbecker Str. 60 46509 Xanten,<p>Sonsbecker Str. 60<br/>46509 Xanten</p>,,,,51.6509,6.4298,0,HEM,0,1,1,0,0,,a:0:{}
,1,Grauhorststr. 10 38440 Wolfsburg,<p>Grauhorststr. 10<br/>38440 Wolfsburg</p>,,,,52.423626,10.753604,0,HEM,0,1,1,0,0,,a:0:{}
,1,Sperberstr. 22 45894 Gelsenkirchen,<p>Sperberstr. 22<br/>45894 Gelsenkirchen</p>,,,,51.587242,7.036391,0,HEM,0,1,1,0,0,,a:0:{}
,1,Rathenower Landstr. 1 14772 Brandenburg,<p>Rathenower Landstr. 1<br/>14772 Brandenburg</p>,,,,52.430048,12.532449,0,HEM,0,1,1,0,0,,a:0:{}
,1,Kamener Str. 38 59425 Unna,<p>Kamener Str. 38<br/>59425 Unna</p>,,,,51.557396,7.682488,0,HEM,0,1,1,0,0,,a:0:{}
,1,Rahlstedter Str. 22 22149 Hamburg,<p>Rahlstedter Str. 22<br/>22149 Hamburg</p>,,,,53.592953,10.141775,0,HEM,0,1,1,0,0,,a:0:{}
,1,Carl-Schwenk-Str. 44 89522 Heidenheim,<p>Carl-Schwenk-Str. 44<br/>89522 Heidenheim</p>,,,,48.657417,10.160706,0,HEM,0,1,1,0,0,,a:0:{}
,1,Bergedorfer Str. 43 21033 Hamburg,<p>Bergedorfer Str. 43<br/>21033 Hamburg</p>,,,,53.493164,10.198143,0,HEM,0,1,1,0,0,,a:0:{}
,1,Sündernstr. 28 30657 Hannover,<p>Sündernstr. 28<br/>30657 Hannover</p>,,,,52.41436,9.793406,0,HEM,0,1,1,0,0,,a:0:{}
,1,Am Langenberg 2 6502 Thale,<p>Am Langenberg 2<br/>6502 Thale</p>,,,,51.801895,11.071489,0,HEM,0,1,1,0,0,,a:0:{}
,1,Rheinstr. 32 64367 Mühltal,<p>Rheinstr. 32<br/>64367 Mühltal</p>,,,,49.819576,8.686212,0,HEM,0,1,1,0,0,,a:0:{}
,1,Poller Str. 3 37619 Bodenwerder,<p>Poller Str. 3<br/>37619 Bodenwerder</p>,,,,51.975033,9.512046,0,HEM,0,1,1,0,0,,a:0:{}
,1,Belliner Str. 92 17373 Ueckermünde,<p>Belliner Str. 92<br/>17373 Ueckermünde</p>,,,,53.736015,14.091157,0,HEM,0,1,1,0,0,,a:0:{}
,1,Außenring 31 4860 Torgau,<p>Außenring 31<br/>4860 Torgau</p>,,,,51.555695,12.965863,0,HEM,0,1,1,0,0,,a:0:{}
,1,Oslostr. 2 23560 Lübeck,<p>Oslostr. 2<br/>23560 Lübeck</p>,,,,53.832214,10.650969,0,HEM,0,1,1,0,0,,a:0:{}
,1,An Der Voßbäk 100 17121 Loitz,<p>An Der Voßbäk 100<br/>17121 Loitz</p>,,,,53.965454,13.103825,0,HEM,0,1,1,0,0,,a:0:{}
,1,Zur Rast 1a 38271 Baddeckenstedt,<p>Zur Rast 1a<br/>38271 Baddeckenstedt</p>,,,,52.090504,10.224403,0,HEM,0,1,1,0,0,,a:0:{}
,1,Fontanestr. 7 17279 Lychen,<p>Fontanestr. 7<br/>17279 Lychen</p>,,,,53.21227,13.288318,0,HEM,0,1,1,0,0,,a:0:{}
,1,Bremer Str. 48 30826 Garbsen,<p>Bremer Str. 48<br/>30826 Garbsen</p>,,,,52.439568,9.589326,0,HEM,0,1,1,0,0,,a:0:{}
,1,Ulzburger Str. 110 22850 Norderstedt,<p>Ulzburger Str. 110<br/>22850 Norderstedt</p>,,,,53.69334,9.994959,0,HEM,0,1,1,0,0,,a:0:{}
,1,Westfalenstr. 201 45276 Essen,<p>Westfalenstr. 201<br/>45276 Essen</p>,,,,51.442833,7.067179,0,HEM,0,1,1,0,0,,a:0:{}
,1,Luruper Hauptstr. 70 22547 Hamburg,<p>Luruper Hauptstr. 70<br/>22547 Hamburg</p>,,,,53.586235,9.878846,0,HEM,0,1,1,0,0,,a:0:{}
,1,Lichterfelder Ring 96 12279 Berlin,<p>Lichterfelder Ring 96<br/>12279 Berlin</p>,,,,52.412346,13.347266,0,HEM,0,1,1,0,0,,a:0:{}
,1,Marienburger Str. 95b 31141 Hildesheim,<p>Marienburger Str. 95b<br/>31141 Hildesheim</p>,,,,52.133507,9.972688,0,HEM,0,1,1,0,0,,a:0:{}
,1,In Der Worth 2 37154 Northeim,<p>In Der Worth 2<br/>37154 Northeim</p>,,,,51.698467,10.052307,0,HEM,0,1,1,0,0,,a:0:{}
,1,Rathenaustr. 35 6773 Gräfenhainichen,<p>Rathenaustr. 35<br/>6773 Gräfenhainichen</p>,,,,51.733486,12.449527,0,HEM,0,1,1,0,0,,a:0:{}
,1,Gersweilerstr. 36-40 66117 Saarbrücken,<p>Gersweilerstr. 36-40<br/>66117 Saarbrücken</p>,,,,49.232674,6.9721026,0,HEM,0,1,1,0,0,,a:0:{}
,1,Neusorger Str. 36 9648 Altmittweida,<p>Neusorger Str. 36<br/>9648 Altmittweida</p>,,,,50.966663,12.979831,0,HEM,0,1,1,0,0,,a:0:{}
,1,Wissmannstr. 39 37431 Bad Lauterberg,<p>Wissmannstr. 39<br/>37431 Bad Lauterberg</p>,,,,51.62941,10.468339,0,HEM,0,1,1,0,0,,a:0:{}
,1,Bunsenstr. 1 64347 Griesheim,<p>Bunsenstr. 1<br/>64347 Griesheim</p>,,,,49.8705,8.564675,0,HEM,0,1,1,0,0,,a:0:{}
,1,Karl-Marx-Str. 41 15713 Königs Wusterhausen,<p>Karl-Marx-Str. 41<br/>15713 Königs Wusterhausen</p>,,,,52.3126,13.650211,0,HEM,0,1,1,0,0,,a:0:{}
,1,Bahnhofstr. 93 4774 Dahlen,<p>Bahnhofstr. 93<br/>4774 Dahlen</p>,,,,51.358585,12.992717,0,HEM,0,1,1,0,0,,a:0:{}
,1,Lubminer Str. 3 17509 Brünzow,<p>Lubminer Str. 3<br/>17509 Brünzow</p>,,,,54.10383,13.56554,0,HEM,0,1,1,0,0,,a:0:{}
,1,Hämmerstr. 2 58708 Menden,<p>Hämmerstr. 2<br/>58708 Menden</p>,,,,51.451088,7.752335,0,HEM,0,1,1,0,0,,a:0:{}
,1,An Der B243 38723 Seesen,<p>An Der B243<br/>38723 Seesen</p>,,,,51.856743,10.1607,0,HEM,0,1,1,0,0,,a:0:{}
,1,Prenzlauer Chaussee 3 16348 Wandlitz,<p>Prenzlauer Chaussee 3<br/>16348 Wandlitz</p>,,,,52.7343,13.448735,0,HEM,0,1,1,0,0,,a:0:{}
,1,Rheinallee 51-55 55283 Nierstein,<p>Rheinallee 51-55<br/>55283 Nierstein</p>,,,,49.86827,8.348485,0,HEM,0,1,1,0,0,,a:0:{}
,1,Watzmannstr. 16 84559 Kraiburg,<p>Watzmannstr. 16<br/>84559 Kraiburg</p>,,,,48.191334,12.436989,0,HEM,0,1,1,0,0,,a:0:{}
,1,Lübecker Str. 20 17389 Anklam,<p>Lübecker Str. 20<br/>17389 Anklam</p>,,,,53.84476,13.685467,0,HEM,0,1,1,0,0,,a:0:{}
,1,Lübzer Str. 44 19399 Goldberg,<p>Lübzer Str. 44<br/>19399 Goldberg</p>,,,,53.582577,12.084907,0,HEM,0,1,1,0,0,,a:0:{}
,1,Geesthachter Str. 107 21502 Geesthacht,<p>Geesthachter Str. 107<br/>21502 Geesthacht</p>,,,,53.44868,10.360385,0,HEM,0,1,1,0,0,,a:0:{}
,1,Theklaer Str. 92a 4347 Leipzig,<p>Theklaer Str. 92a<br/>4347 Leipzig</p>,,,,51.370674,12.42705,0,HEM,0,1,1,0,0,,a:0:{}
,1,Zollstr. 233 44869 Bochum,<p>Zollstr. 233<br/>44869 Bochum</p>,,,,51.44545,7.159824,0,HEM,0,1,1,0,0,,a:0:{}
,1,Langwiesen 2 69231 Rauenberg,<p>Langwiesen 2<br/>69231 Rauenberg</p>,,,,49.27492,8.701605,0,HEM,0,1,1,0,0,,a:0:{}
,1,Haslocher Str. 23 97892 Kreuzwertheim,<p>Haslocher Str. 23<br/>97892 Kreuzwertheim</p>,,,,49.76889,9.5134,0,HEM,0,1,1,0,0,,a:0:{}
,1,Vechtaer Str. 64 49393 Lohne,<p>Vechtaer Str. 64<br/>49393 Lohne</p>,,,,52.680325,8.265642,0,HEM,0,1,1,0,0,,a:0:{}
,1,Kirchhuchtinger Landstr. 225 28259 Bremen,<p>Kirchhuchtinger Landstr. 225<br/>28259 Bremen</p>,,,,53.037655,8.727184,0,HEM,0,1,1,0,0,,a:0:{}
,1,Cranger Str. 160 45891 Gelsenkirchen,<p>Cranger Str. 160<br/>45891 Gelsenkirchen</p>,,,,51.56879,7.07969,0,HEM,0,1,1,0,0,,a:0:{}
,1,Marktbreiter Str. 65 97342 Marktsteft,<p>Marktbreiter Str. 65<br/>97342 Marktsteft</p>,,,,49.68643,10.14395,0,HEM,0,1,1,0,0,,a:0:{}
,1,Ludwigstr. 1 72116 Mössingen,<p>Ludwigstr. 1<br/>72116 Mössingen</p>,,,,48.4183,9.0548,0,HEM,0,1,1,0,0,,a:0:{}
,1,Tile-Hagemann-Str. 17 29525 Uelzen,<p>Tile-Hagemann-Str. 17<br/>29525 Uelzen</p>,,,,52.96611,10.574383,0,HEM,0,1,1,0,0,,a:0:{}
,1,Ludwigsluster Str. 31 19306 Neustadt-Glewe,<p>Ludwigsluster Str. 31<br/>19306 Neustadt-Glewe</p>,,,,53.38146,11.576532,0,HEM,0,1,1,0,0,,a:0:{}
,1,Im Moorbusche 103 38162 Cremlingen,<p>Im Moorbusche 103<br/>38162 Cremlingen</p>,,,,52.25389,10.656196,0,HEM,0,1,1,0,0,,a:0:{}
,1,Kaiserslautener Str. 11a 67806 Rockenhausen,<p>Kaiserslautener Str. 11a<br/>67806 Rockenhausen</p>,,,,49.622818,7.818852,0,HEM,0,1,1,0,0,,a:0:{}
,1,Ahornstr. 1 16727 Velten,<p>Ahornstr. 1<br/>16727 Velten</p>,,,,52.68665,13.193324,0,HEM,0,1,1,0,0,,a:0:{}
,1,Lützelhäuser Weg 13 63571 Gelnhausen,<p>Lützelhäuser Weg 13<br/>63571 Gelnhausen</p>,,,,50.188507,9.185814,0,HEM,0,1,1,0,0,,a:0:{}
,1,Wittichenauer Str. 2 53604 Bad Honnef,<p>Wittichenauer Str. 2<br/>53604 Bad Honnef</p>,,,,50.630676,7.2258472,0,HEM,0,1,1,0,0,,a:0:{}
,1,Emil-Von-Kessler-Str. 4 78166 Donaueschingen,<p>Emil-Von-Kessler-Str. 4<br/>78166 Donaueschingen</p>,,,,47.935806,8.49708,0,HEM,0,1,1,0,0,,a:0:{}
,1,Schützenstr. 67 59505 Bad Sassendorf,<p>Schützenstr. 67<br/>59505 Bad Sassendorf</p>,,,,51.57895,8.158259,0,HEM,0,1,1,0,0,,a:0:{}
,1,Soltauer Str. 5 29633 Munster,<p>Soltauer Str. 5<br/>29633 Munster</p>,,,,52.99126,10.079998,0,HEM,0,1,1,0,0,,a:0:{}
,1,Bahnhofstr. 89 83236 Übersee,<p>Bahnhofstr. 89<br/>83236 Übersee</p>,,,,47.819016,12.49646,0,HEM,0,1,1,0,0,,a:0:{}
,1,Vockenhof 2 49124 Georgsmarienhütte,<p>Vockenhof 2<br/>49124 Georgsmarienhütte</p>,,,,52.19967365,8.068583608,0,HEM,0,1,1,0,0,,a:0:{}
,1,Rudolstädter Str. 89 7745 Jena,<p>Rudolstädter Str. 89<br/>7745 Jena</p>,,,,50.886845,11.587801,0,HEM,0,1,1,0,0,,a:0:{}
,1,Karl-Geusen-Str. 171a 40231 Düsseldorf,<p>Karl-Geusen-Str. 171a<br/>40231 Düsseldorf</p>,,,,51.206768,6.822315,0,HEM,0,1,1,0,0,,a:0:{}
,1,Arnoldstr. 45 70378 Stuttgart,<p>Arnoldstr. 45<br/>70378 Stuttgart</p>,,,,48.84026,9.226433,0,HEM,0,1,1,0,0,,a:0:{}
,1,Erfurter Str. 53 99427 Weimar,<p>Erfurter Str. 53<br/>99427 Weimar</p>,,,,50.979435,11.3053665,0,HEM,0,1,1,0,0,,a:0:{}
,1,Brehnaer Str. 24 6749 Bitterfeld,<p>Brehnaer Str. 24<br/>6749 Bitterfeld</p>,,,,51.614506,12.31038,0,HEM,0,1,1,0,0,,a:0:{}
,1,Weimarische Str. 142 99098 Erfurt,<p>Weimarische Str. 142<br/>99098 Erfurt</p>,,,,50.97552,11.102205,0,HEM,0,1,1,0,0,,a:0:{}
,1,Annenstr. 175 58453 Witten,<p>Annenstr. 175<br/>58453 Witten</p>,,,,51.44754,7.375198,0,HEM,0,1,1,0,0,,a:0:{}
,1,Warener Chaussee 33a 17217 Penzlin,<p>Warener Chaussee 33a<br/>17217 Penzlin</p>,,,,53.499382,13.06931,0,HEM,0,1,1,0,0,,a:0:{}
,1,Ramskamp 67 25337 Elmshorn,<p>Ramskamp 67<br/>25337 Elmshorn</p>,,,,53.741505,9.697177,0,HEM,0,1,1,0,0,,a:0:{}
,1,Saatwinkler Damm 62 13627 Berlin,<p>Saatwinkler Damm 62<br/>13627 Berlin</p>,,,,52.547394,13.309628,0,HEM,0,1,1,0,0,,a:0:{}
,1,Am Hartweg 175 44149 Dortmund,<p>Am Hartweg 175<br/>44149 Dortmund</p>,,,,51.497066,7.403551,0,HEM,0,1,1,0,0,,a:0:{}
,1,Neustädter Str. 4a 1877 Schmölln-Putzkau,<p>Neustädter Str. 4a<br/>1877 Schmölln-Putzkau</p>,,,,51.106026,14.197381,0,HEM,0,1,1,0,0,,a:0:{}
,1,Friedenstr. 12a 93053 Regensburg,<p>Friedenstr. 12a<br/>93053 Regensburg</p>,,,,49.009834,12.094014,0,HEM,0,1,1,0,0,,a:0:{}
,1,Hansastr. 72 1097 Dresden,<p>Hansastr. 72<br/>1097 Dresden</p>,,,,51.08399,13.739064,0,HEM,0,1,1,0,0,,a:0:{}
,1,Hausdorffstr. 223 53129 Bonn,<p>Hausdorffstr. 223<br/>53129 Bonn</p>,,,,50.709156,7.1098194,0,HEM,0,1,1,0,0,,a:0:{}
,1,Zweinaundorfer Str. 74 4318 Leipzig,<p>Zweinaundorfer Str. 74<br/>4318 Leipzig</p>,,,,51.332848,12.419341,0,HEM,0,1,1,0,0,,a:0:{}
,1,Werner-Von-Siemens-Str. 1 64319 Pfungstadt,<p>Werner-Von-Siemens-Str. 1<br/>64319 Pfungstadt</p>,,,,49.81508,8.620911,0,HEM,0,1,1,0,0,,a:0:{}
,1,Vor Dem Neuen Tore 22a 21339 Lüneburg,<p>Vor Dem Neuen Tore 22a<br/>21339 Lüneburg</p>,,,,53.249073,10.384187,0,HEM,0,1,1,0,0,,a:0:{}
,1,Kollaustr. 179-181 22453 Hamburg,<p>Kollaustr. 179-181<br/>22453 Hamburg</p>,,,,53.612682,9.952802,0,HEM,0,1,1,0,0,,a:0:{}
,1,Haller Str. 15 74564 Crailsheim,<p>Haller Str. 15<br/>74564 Crailsheim</p>,,,,49.141388,10.059973,0,HEM,0,1,1,0,0,,a:0:{}
,1,Hamburger Str. 134 38518 Gifhorn,<p>Hamburger Str. 134<br/>38518 Gifhorn</p>,,,,52.497257,10.541436,0,HEM,0,1,1,0,0,,a:0:{}
,1,Poststr. 12 99947 Bad Langensalza,<p>Poststr. 12<br/>99947 Bad Langensalza</p>,,,,51.102863,10.637195,0,HEM,0,1,1,0,0,,a:0:{}
,1,Wismarsche Str. 376 19055 Schwerin,<p>Wismarsche Str. 376<br/>19055 Schwerin</p>,,,,53.650818,11.405273,0,HEM,0,1,1,0,0,,a:0:{}
,1,Friedrich-List-Str. 11 14482 Potsdam,<p>Friedrich-List-Str. 11<br/>14482 Potsdam</p>,,,,52.39231,13.084542,0,HEM,0,1,1,0,0,,a:0:{}
,1,Schloßstr. 57 64668 Rimbach,<p>Schloßstr. 57<br/>64668 Rimbach</p>,,,,49.6162,8.7559,0,HEM,0,1,1,0,0,,a:0:{}
,1,Ratzeburger Str. 1 24113 Kiel,<p>Ratzeburger Str. 1<br/>24113 Kiel</p>,,,,54.303883,10.129957,0,HEM,0,1,1,0,0,,a:0:{}
,1,Neustrelitzer Str. 125 17033 Neubrandenburg,<p>Neustrelitzer Str. 125<br/>17033 Neubrandenburg</p>,,,,53.525993,13.262386,0,HEM,0,1,1,0,0,,a:0:{}
,1,Tuchmacherstr. 1 17094 Burg Stargard,<p>Tuchmacherstr. 1<br/>17094 Burg Stargard</p>,,,,53.49817,13.305463,0,HEM,0,1,1,0,0,,a:0:{}
,1,Bergheimer Str. 12 41515 Grevenbroich,<p>Bergheimer Str. 12<br/>41515 Grevenbroich</p>,,,,51.08973,6.582075,0,HEM,0,1,1,0,0,,a:0:{}
,1,Im Remenfeld 5 38104 Braunschweig,<p>Im Remenfeld 5<br/>38104 Braunschweig</p>,,,,52.28569,10.587955,0,HEM,0,1,1,0,0,,a:0:{}
,1,Lübzer Chaussee 6a 19370 Parchim,<p>Lübzer Chaussee 6a<br/>19370 Parchim</p>,,,,53.434963,11.870636,0,HEM,0,1,1,0,0,,a:0:{}
,1,Tharandter Str. 48 1159 Dresden,<p>Tharandter Str. 48<br/>1159 Dresden</p>,,,,51.036,13.704583,0,HEM,0,1,1,0,0,,a:0:{}
,1,Hauptstr. 1 38110 Braunschweig,<p>Hauptstr. 1<br/>38110 Braunschweig</p>,,,,52.318237,10.515278,0,HEM,0,1,1,0,0,,a:0:{}
,1,An Der Mühle 1 18311 Ribnitz-Damgarten,<p>An Der Mühle 1<br/>18311 Ribnitz-Damgarten</p>,,,,54.254658,12.491396,0,HEM,0,1,1,0,0,,a:0:{}
,1,Lpg Str. 1 3222 Lübbenau,<p>Lpg Str. 1<br/>3222 Lübbenau</p>,,,,51.85037,13.906728,0,HEM,0,1,1,0,0,,a:0:{}
,1,Braunstr. 1 4347 Leipzig,<p>Braunstr. 1<br/>4347 Leipzig</p>,,,,51.358972,12.429656,0,HEM,0,1,1,0,0,,a:0:{}
,1,Eilenburger Str. 79a 4860 Torgau,<p>Eilenburger Str. 79a<br/>4860 Torgau</p>,,,,51.552326,12.971549,0,HEM,0,1,1,0,0,,a:0:{}
,1,Sachsenstr. 9 9244 Lichtenau,<p>Sachsenstr. 9<br/>9244 Lichtenau</p>,,,,50.90705,12.977761,0,HEM,0,1,1,0,0,,a:0:{}
,1,Weserstr. 2 38120 Braunschweig,<p>Weserstr. 2<br/>38120 Braunschweig</p>,,,,52.241684,10.478508,0,HEM,0,1,1,0,0,,a:0:{}
,1,Pariser Str. 190 67655 Kaiserslautern,<p>Pariser Str. 190<br/>67655 Kaiserslautern</p>,,,,49.442535,7.745478,0,HEM,0,1,1,0,0,,a:0:{}
,1,Aldinger Str. 83 70806 Kornwestheim,<p>Aldinger Str. 83<br/>70806 Kornwestheim</p>,,,,48.867153,9.199628,0,HEM,0,1,1,0,0,,a:0:{}
,1,Chausseestr. 1a 23968 Gägelow,<p>Chausseestr. 1a<br/>23968 Gägelow</p>,,,,53.902645,11.37718,0,HEM,0,1,1,0,0,,a:0:{}
,1,Demminer Str. 80 17034 Neubrandenburg,<p>Demminer Str. 80<br/>17034 Neubrandenburg</p>,,,,53.585518,13.271152,0,HEM,0,1,1,0,0,,a:0:{}
,1,Am Kalkbruch 2 19205 Gadebusch,<p>Am Kalkbruch 2<br/>19205 Gadebusch</p>,,,,53.68487,11.134461,0,HEM,0,1,1,0,0,,a:0:{}
,1,Braunschweiger Str. 1 38527 Meine,<p>Braunschweiger Str. 1<br/>38527 Meine</p>,,,,52.379425,10.534863,0,HEM,0,1,1,0,0,,a:0:{}
,1,Woldegker Chaussee 4 17235 Neustrelitz,<p>Woldegker Chaussee 4<br/>17235 Neustrelitz</p>,,,,53.344513,13.092077,0,HEM,0,1,1,0,0,,a:0:{}
,1,Str. Der Völkerfreundschaft 2 7551 Gera,<p>Str. Der Völkerfreundschaft 2<br/>7551 Gera</p>,,,,50.853195,12.090244,0,HEM,0,1,1,0,0,,a:0:{}
,1,Königshütter Str. 7 38875 Elbingerode,<p>Königshütter Str. 7<br/>38875 Elbingerode</p>,,,,51.767384,10.786208,0,HEM,0,1,1,0,0,,a:0:{}
,1,Daimlerstr. 43862 89564 Nattheim,<p>Daimlerstr. 43862<br/>89564 Nattheim</p>,,,,48.7029,10.2347,0,HEM,0,1,1,0,0,,a:0:{}
,1,Prosigker Kreisstr. / B183 6366 Köthen,<p>Prosigker Kreisstr. / B183<br/>6366 Köthen</p>,,,,51.74157,11.99935,0,HEM,0,1,1,0,0,,a:0:{}
,1,Hannoversche Str. 9 37574 Einbeck,<p>Hannoversche Str. 9<br/>37574 Einbeck</p>,,,,51.818325,9.855733,0,HEM,0,1,1,0,0,,a:0:{}
,1,Rosa-Luxemburg-Str. 113 16727 Velten,<p>Rosa-Luxemburg-Str. 113<br/>16727 Velten</p>,,,,52.683846,13.180245,0,HEM,0,1,1,0,0,,a:0:{}
,1,Hans-Mess-Str. 2 61440 Oberursel,<p>Hans-Mess-Str. 2<br/>61440 Oberursel</p>,,,,50.224194,8.580523,0,HEM,0,1,1,0,0,,a:0:{}
,1,Keplerstr. 2 89073 Ulm,<p>Keplerstr. 2<br/>89073 Ulm</p>,,,,48.4024,9.9939,0,HEM,0,1,1,0,0,,a:0:{}
,1,Vornhäger Str. 66a 31655 Stadthagen,<p>Vornhäger Str. 66a<br/>31655 Stadthagen</p>,,,,52.327812,9.219954,0,HEM,0,1,1,0,0,,a:0:{}
,1,Kirchheimer Str. 176/2 73265 Dettingen Unter Teck,<p>Kirchheimer Str. 176/2<br/>73265 Dettingen Unter Teck</p>,,,,48.62594,9.454249,0,HEM,0,1,1,0,0,,a:0:{}
,1,Karbacher Str. 26 97828 Marktheidenfeld,<p>Karbacher Str. 26<br/>97828 Marktheidenfeld</p>,,,,49.851,9.6113,0,HEM,0,1,1,0,0,,a:0:{}
,1,Haselünner Str. 68 49584 Fürstenau,<p>Haselünner Str. 68<br/>49584 Fürstenau</p>,,,,52.533237,7.667137,0,HEM,0,1,1,0,0,,a:0:{}
,1,Romain-Rolland-Str. 2 13089 Berlin,<p>Romain-Rolland-Str. 2<br/>13089 Berlin</p>,,,,52.564816,13.448848,0,HEM,0,1,1,0,0,,a:0:{}
,1,An Der Mühle 1 4838 Doberschütz,<p>An Der Mühle 1<br/>4838 Doberschütz</p>,,,,51.496346,12.744688,0,HEM,0,1,1,0,0,,a:0:{}
,1,Schönerlinder Str. 60-61 13127 Berlin,<p>Schönerlinder Str. 60-61<br/>13127 Berlin</p>,,,,52.613243,13.433304,0,HEM,0,1,1,0,0,,a:0:{}
,1,Rudolf Breitscheid Str. 1 6567 Bad Frankenhausen,<p>Rudolf Breitscheid Str. 1<br/>6567 Bad Frankenhausen</p>,,,,51.353188,11.102475,0,HEM,0,1,1,0,0,,a:0:{}
,1,Müllerstr. 168 13353 Berlin,<p>Müllerstr. 168<br/>13353 Berlin</p>,,,,52.542477,13.365372,0,HEM,0,1,1,0,0,,a:0:{}
,1,Dorfstr. 1 31303 Burgdorf,<p>Dorfstr. 1<br/>31303 Burgdorf</p>,,,,52.444794,9.983819,0,HEM,0,1,1,0,0,,a:0:{}
,1,Rielingshäuser Str. 25 71672 Marbach Am Neckar,<p>Rielingshäuser Str. 25<br/>71672 Marbach Am Neckar</p>,,,,48.94324,9.26805,0,HEM,0,1,1,0,0,,a:0:{}
,1,Nagolder Str. 64 72224 Ebhausen,<p>Nagolder Str. 64<br/>72224 Ebhausen</p>,,,,48.580704,8.67997,0,HEM,0,1,1,0,0,,a:0:{}
,1,Schießstattweg 32 88677 Markdorf,<p>Schießstattweg 32<br/>88677 Markdorf</p>,,,,47.7145,9.3967,0,HEM,0,1,1,0,0,,a:0:{}
,1,An Der Heide 2 97714 Oerlenbach,<p>An Der Heide 2<br/>97714 Oerlenbach</p>,,,,50.14496,10.15089,0,HEM,0,1,1,0,0,,a:0:{}
,1,Steinsfurter Str. 75 74889 Sinsheim,<p>Steinsfurter Str. 75<br/>74889 Sinsheim</p>,,,,49.241737,8.906594,0,HEM,0,1,1,0,0,,a:0:{}
,1,Rothenburger Str. 325 90431 Nürnberg,<p>Rothenburger Str. 325<br/>90431 Nürnberg</p>,,,,49.44145,11.028373,0,HEM,0,1,1,0,0,,a:0:{}
,1,Bodenborn 50 58452 Witten,<p>Bodenborn 50<br/>58452 Witten</p>,,,,51.420666,7.337554,0,HEM,0,1,1,0,0,,a:0:{}
,1,Okerstr. 12 38640 Goslar,<p>Okerstr. 12<br/>38640 Goslar</p>,,,,51.912685,10.440884,0,HEM,0,1,1,0,0,,a:0:{}
,1,Steinbrüchenstr. 1 99428 Grammetal Ot Nohra,<p>Steinbrüchenstr. 1<br/>99428 Grammetal Ot Nohra</p>,,,,50.96661,11.257139,0,HEM,0,1,1,0,0,,a:0:{}
,1,Erlenweg 1 89173 Lonsee,<p>Erlenweg 1<br/>89173 Lonsee</p>,,,,48.518314,9.908554,0,HEM,0,1,1,0,0,,a:0:{}
,1,Karpendiek 1 23970 Kritzow,<p>Karpendiek 1<br/>23970 Kritzow</p>,,,,53.889973,11.530833,0,HEM,0,1,1,0,0,,a:0:{}
,1,Alt-Fermersleben 69 39122 Magdeburg,<p>Alt-Fermersleben 69<br/>39122 Magdeburg</p>,,,,52.08952462,11.65889,0,HEM,0,1,1,0,0,,a:0:{}
,1,Drönnewitzer Str. 50 17109 Demmin,<p>Drönnewitzer Str. 50<br/>17109 Demmin</p>,,,,53.905457,13.013949,0,HEM,0,1,1,0,0,,a:0:{}
,1,Wallhausenstr. 40 57072 Siegen,<p>Wallhausenstr. 40<br/>57072 Siegen</p>,,,,50.86449,8.002536,0,HEM,0,1,1,0,0,,a:0:{}
,1,Verbindungschaussee 8c 18273 Güstrow,<p>Verbindungschaussee 8c<br/>18273 Güstrow</p>,,,,53.798294,12.201562,0,HEM,0,1,1,0,0,,a:0:{}
,1,Grünwalder Str. 112 81547 München,<p>Grünwalder Str. 112<br/>81547 München</p>,,,,48.10162,11.567095,0,HEM,0,1,1,0,0,,a:0:{}
,1,Oberer Luß 2 89155 Erbach,<p>Oberer Luß 2<br/>89155 Erbach</p>,,,,48.32997,9.901369,0,HEM,0,1,1,0,0,,a:0:{}
,1,Kamener Str. 5 59368 Werne,<p>Kamener Str. 5<br/>59368 Werne</p>,,,,51.661076,7.638393,0,HEM,0,1,1,0,0,,a:0:{}
,1,Sternenstr. 6 8066 Zwickau,<p>Sternenstr. 6<br/>8066 Zwickau</p>,,,,50.731724,12.508102,0,HEM,0,1,1,0,0,,a:0:{}
,1,Staatsstr. 2 67480 Edenkoben,<p>Staatsstr. 2<br/>67480 Edenkoben</p>,,,,49.285416,8.140352,0,HEM,0,1,1,0,0,,a:0:{}
,1,Braunschweiger Str. 69 38518 Gifhorn,<p>Braunschweiger Str. 69<br/>38518 Gifhorn</p>,,,,52.47442,10.543872,0,HEM,0,1,1,0,0,,a:0:{}
,1,Tessiner Str. 2 17179 Gnoien,<p>Tessiner Str. 2<br/>17179 Gnoien</p>,,,,53.974567,12.69475,0,HEM,0,1,1,0,0,,a:0:{}
,1,Borsigstr. 22 51381 Leverkusen,<p>Borsigstr. 22<br/>51381 Leverkusen</p>,,,,51.0542351,7.0177866,0,HEM,0,1,1,0,0,,a:0:{}
,1,Herzberger Str. 52 4936 Schlieben,<p>Herzberger Str. 52<br/>4936 Schlieben</p>,,,,51.72253,13.374953,0,HEM,0,1,1,0,0,,a:0:{}
,1,Müdener Str. 47 29345 Unterlüß,<p>Müdener Str. 47<br/>29345 Unterlüß</p>,,,,52.844227,10.294575,0,HEM,0,1,1,0,0,,a:0:{}
,1,Robert-Bosch-Str. 13 71701 Schwieberdingen,<p>Robert-Bosch-Str. 13<br/>71701 Schwieberdingen</p>,,,,48.881474,9.079297,0,HEM,0,1,1,0,0,,a:0:{}
,1,Buchholzer Str. 100 15755 Teupitz,<p>Buchholzer Str. 100<br/>15755 Teupitz</p>,,,,52.123554,13.637756,0,HEM,0,1,1,0,0,,a:0:{}
,1,Donauwörther Str. 30 89407 Dillingen A. D. Donau,<p>Donauwörther Str. 30<br/>89407 Dillingen A. D. Donau</p>,,,,48.58219,10.49972,0,HEM,0,1,1,0,0,,a:0:{}
,1,Frankfurter Str. 1 61169 Friedberg,<p>Frankfurter Str. 1<br/>61169 Friedberg</p>,,,,50.32901868,8.749961257,0,HEM,0,1,1,0,0,,a:0:{}
,1,Magdeburger Str. 2 68309 Mannheim,<p>Magdeburger Str. 2<br/>68309 Mannheim</p>,,,,49.514175,8.546299,0,HEM,0,1,1,0,0,,a:0:{}
,1,Zur Gänswiese 11 63924 Kleinheubach,<p>Zur Gänswiese 11<br/>63924 Kleinheubach</p>,,,,49.7248104,9.2007424,0,HEM,0,1,1,0,0,,a:0:{}
,1,Meyenburger Chaussee 43 16909 Wittstock,<p>Meyenburger Chaussee 43<br/>16909 Wittstock</p>,,,,53.174995,12.481161,0,HEM,0,1,1,0,0,,a:0:{}
,1,Hellweg 277 45721 Haltern Am See,<p>Hellweg 277<br/>45721 Haltern Am See</p>,,,,51.75755408,7.196377516,0,HEM,0,1,1,0,0,,a:0:{}
,1,Münsterstr. 93 44534 Lünen,<p>Münsterstr. 93<br/>44534 Lünen</p>,,,,51.621094,7.537954,0,HEM,0,1,1,0,0,,a:0:{}
,1,Einern 144 42279 Wuppertal,<p>Einern 144<br/>42279 Wuppertal</p>,,,,51.30214,7.214836,0,HEM,0,1,1,0,0,,a:0:{}
,1,Rendsburger Str. 1 30659 Hannover,<p>Rendsburger Str. 1<br/>30659 Hannover</p>,,,,52.419117,9.832593,0,HEM,0,1,1,0,0,,a:0:{}
,1,Reutestr. 20 73529 Schwäbisch Gmünd,<p>Reutestr. 20<br/>73529 Schwäbisch Gmünd</p>,,,,48.79297,9.860242,0,HEM,0,1,1,0,0,,a:0:{}
,1,Bergedorfer Str. 48 21033 Hamburg,<p>Bergedorfer Str. 48<br/>21033 Hamburg</p>,,,,53.492912,10.197613,0,HEM,0,1,1,0,0,,a:0:{}
,1,Permoserstr. 80 4328 Leipzig,<p>Permoserstr. 80<br/>4328 Leipzig</p>,,,,51.350037,12.454345,0,HEM,0,1,1,0,0,,a:0:{}
,1,Bahnhofstr. 91 78652 Deißlingen,<p>Bahnhofstr. 91<br/>78652 Deißlingen</p>,,,,48.11306,8.61544,0,HEM,0,1,1,0,0,,a:0:{}
,1,Riesaer Str. 121 12627 Berlin,<p>Riesaer Str. 121<br/>12627 Berlin</p>,,,,52.53023,13.62457,0,HEM,0,1,1,0,0,,a:0:{}
,1,Hallesche Str. 104 6406 Bernburg,<p>Hallesche Str. 104<br/>6406 Bernburg</p>,,,,51.786205,11.742486,0,HEM,0,1,1,0,0,,a:0:{}
,1,Heiligenhauser Str. 84 42549 Velbert,<p>Heiligenhauser Str. 84<br/>42549 Velbert</p>,,,,51.33242,7.01955,0,HEM,0,1,1,0,0,,a:0:{}
,1,Am Dachberg 1 63584 Gründau,<p>Am Dachberg 1<br/>63584 Gründau</p>,,,,50.208828,9.128268,0,HEM,0,1,1,0,0,,a:0:{}
,1,Herforder Str. 149 32105 Bad Salzuflen,<p>Herforder Str. 149<br/>32105 Bad Salzuflen</p>,,,,52.091064,8.724962,0,HEM,0,1,1,0,0,,a:0:{}
,1,Unter Den Weinbergen 1b 37213 Witzenhausen,<p>Unter Den Weinbergen 1b<br/>37213 Witzenhausen</p>,,,,51.346558,9.858583,0,HEM,0,1,1,0,0,,a:0:{}
,1,Forster Weg 31 41849 Wassenberg,<p>Forster Weg 31<br/>41849 Wassenberg</p>,,,,51.098713,6.146443,0,HEM,0,1,1,0,0,,a:0:{}
,1,Rosenheimer Str. 60 83059 Kolbermoor,<p>Rosenheimer Str. 60<br/>83059 Kolbermoor</p>,,,,47.84908,12.07719,0,HEM,0,1,1,0,0,,a:0:{}
,1,Robert-Bosch-Str. 2 71711 Murr,<p>Robert-Bosch-Str. 2<br/>71711 Murr</p>,,,,48.95649542,9.243825674,0,HEM,0,1,1,0,0,,a:0:{}
,1,Bergstr. 197 69469 Weinheim,<p>Bergstr. 197<br/>69469 Weinheim</p>,,,,49.566013,8.663726,0,HEM,0,1,1,0,0,,a:0:{}
,1,Guteborner Allee 7 8393 Meerane,<p>Guteborner Allee 7<br/>8393 Meerane</p>,,,,50.840946,12.447183,0,HEM,0,1,1,0,0,,a:0:{}
,1,Neugablonzer Str. 101 87600 Kaufbeuren,<p>Neugablonzer Str. 101<br/>87600 Kaufbeuren</p>,,,,47.891685,10.635942,0,HEM,0,1,1,0,0,,a:0:{}
,1,Grosser Sand 2 76698 Ubstadt-Weiher,<p>Grosser Sand 2<br/>76698 Ubstadt-Weiher</p>,,,,49.18588723,8.628178887,0,HEM,0,1,1,0,0,,a:0:{}
,1,Gewerbegebiet 12 92546 Schmidgaden-Trisching,<p>Gewerbegebiet 12<br/>92546 Schmidgaden-Trisching</p>,,,,49.43849,12.052491,0,HEM,0,1,1,0,0,,a:0:{}
,1,Waldseer Str. 116a 67105 Schifferstadt,<p>Waldseer Str. 116a<br/>67105 Schifferstadt</p>,,,,49.38588619,8.395105505,0,HEM,0,1,1,0,0,,a:0:{}
,1,Rudolf-Diesel-Str. 2 88521 Ertingen,<p>Rudolf-Diesel-Str. 2<br/>88521 Ertingen</p>,,,,48.10825,9.463619,0,HEM,0,1,1,0,0,,a:0:{}
,1,Im Dörnach 1 71088 Holzgerlingen,<p>Im Dörnach 1<br/>71088 Holzgerlingen</p>,,,,48.63969196,9.006124334,0,HEM,0,1,1,0,0,,a:0:{}
,1,Frankenring 1 96237 Ebersdorf,<p>Frankenring 1<br/>96237 Ebersdorf</p>,,,,50.223885,11.051485,0,HEM,0,1,1,0,0,,a:0:{}
,1,Gutachstr. 24 79822 Titisee-Neustadt,<p>Gutachstr. 24<br/>79822 Titisee-Neustadt</p>,,,,47.91721,8.20606,0,HEM,0,1,1,0,0,,a:0:{}
,1,Rodderheide 1 33824 Werther,<p>Rodderheide 1<br/>33824 Werther</p>,,,,52.082024,8.424448,0,HEM,0,1,1,0,0,,a:0:{}
,1,Röteweg 2 90556 Seukendorf,<p>Röteweg 2<br/>90556 Seukendorf</p>,,,,49.483692,10.873313,0,HEM,0,1,1,0,0,,a:0:{}
,1,Schlierfer Holz 2 92369 Sengenthal,<p>Schlierfer Holz 2<br/>92369 Sengenthal</p>,,,,49.225544,11.456361,0,HEM,0,1,1,0,0,,a:0:{}
,1,Am Handelshof 15 97076 Würzburg,<p>Am Handelshof 15<br/>97076 Würzburg</p>,,,,49.818214,9.985668,0,HEM,0,1,1,0,0,,a:0:{}
,1,Ittlinger Str. 201 94315 Straubing,<p>Ittlinger Str. 201<br/>94315 Straubing</p>,,,,48.885193,12.614551,0,HEM,0,1,1,0,0,,a:0:{}
,1,Rheinstr. 13 55435 Gau-Algesheim,<p>Rheinstr. 13<br/>55435 Gau-Algesheim</p>,,,,49.96463,8.016561,0,HEM,0,1,1,0,0,,a:0:{}
,1,Am Eichenbach 2 73054 Eislingen/fils,<p>Am Eichenbach 2<br/>73054 Eislingen/fils</p>,,,,48.687237,9.724057,0,HEM,0,1,1,0,0,,a:0:{}
,1,Radebrück 31 15345 Altlandsberg Ot Bruchmühle,<p>Radebrück 31<br/>15345 Altlandsberg Ot Bruchmühle</p>,,,,52.55987,13.768245,0,HEM,0,1,1,0,0,,a:0:{}
,1,Passauer Str. 36 94447 Plattling,<p>Passauer Str. 36<br/>94447 Plattling</p>,,,,48.773243,12.879574,0,HEM,0,1,1,0,0,,a:0:{}
,1,Alt-Mahlsdorf 40 12623 Berlin,<p>Alt-Mahlsdorf 40<br/>12623 Berlin</p>,,,,52.50517259,13.61679196,0,HEM,0,1,1,0,0,,a:0:{}
,1,Gelderner Str. 70 41189 Mönchengladbach,<p>Gelderner Str. 70<br/>41189 Mönchengladbach</p>,,,,51.137183,6.4201194,0,HEM,0,1,1,0,0,,a:0:{}
,1,Goslarsche Str. 61 38678 Clausthal-Zellerfeld,<p>Goslarsche Str. 61<br/>38678 Clausthal-Zellerfeld</p>,,,,51.820696,10.3405,0,HEM,0,1,1,0,0,,a:0:{}
,1,Rabenhorster Damm 1 18211 Admannshagen-Bargeshagen,<p>Rabenhorster Damm 1<br/>18211 Admannshagen-Bargeshagen</p>,,,,54.1111159,11.97229743,0,HEM,0,1,1,0,0,,a:0:{}
,1,Alte Stöckener Str. 58 30419 Hannover,<p>Alte Stöckener Str. 58<br/>30419 Hannover</p>,,,,52.41309,9.653039,0,LEO,0,5,1,0,0,,a:0:{}
,1,Helmstedter Str. 56 38126 Braunschweig,<p>Helmstedter Str. 56<br/>38126 Braunschweig</p>,,,,52.2523,10.5748,0,LEO,0,5,1,0,0,,a:0:{}
,1,Herzberger Str. 10 37412 Herzberg,<p>Herzberger Str. 10<br/>37412 Herzberg</p>,,,,51.6127,10.3226,0,LEO,0,5,1,0,0,,a:0:{}
,1,Bischof-Janssen-Str. 15 31134 Hildesheim,<p>Bischof-Janssen-Str. 15<br/>31134 Hildesheim</p>,,,,52.1577,9.94942,0,LEO,0,5,1,0,0,,a:0:{}
,1,Mitteldorfer Str. 7 37197 Hattorf,<p>Mitteldorfer Str. 7<br/>37197 Hattorf</p>,,,,51.6494,10.2378,0,LEO,0,5,1,0,0,,a:0:{}
,1,Stöckener Str. 66 30926 Seelze,<p>Stöckener Str. 66<br/>30926 Seelze</p>,,,,52.4053,9.64625,0,LEO,0,5,1,0,0,,a:0:{}
,1,Carl-Grete-Str. 34 38448 Wolfsburg,<p>Carl-Grete-Str. 34<br/>38448 Wolfsburg</p>,,,,52.4457,10.8354,0,LEO,0,5,1,0,0,,a:0:{}
,1,Stendaler Chaussee 2 39638 Gardelegen,<p>Stendaler Chaussee 2<br/>39638 Gardelegen</p>,,,,52.5281,11.4209,0,LEO,0,5,1,0,0,,a:0:{}
,1,Reeshoop 47 22926 Ahrensburg,<p>Reeshoop 47<br/>22926 Ahrensburg</p>,,,,53.6799,10.23426,0,LOTHEROL,0,13,1,0,0,,a:0:{}
,1,Lauenburger Str. 61 21493 Schwarzenbek,<p>Lauenburger Str. 61<br/>21493 Schwarzenbek</p>,,,,53.500515,10.491581,0,LOTHEROL,0,13,1,0,0,,a:0:{}
,1,Holtenklinker Str. 128a 21029 Hamburg,<p>Holtenklinker Str. 128a<br/>21029 Hamburg</p>,,,,53.480682,10.227351,0,LOTHEROL,0,13,1,0,0,,a:0:{}
,1,Celler Str. 100 31582 Nienburg,<p>Celler Str. 100<br/>31582 Nienburg</p>,,,,52.65881,9.23466,0,LTG,0,17,1,0,0,,a:0:{}
,1,An Der B107 / Gewerbegebiet 39524 Schönhausen,<p>An Der B107 / Gewerbegebiet<br/>39524 Schönhausen</p>,,,,52.57521,12.034735,0,LTG,0,17,1,0,0,,a:0:{}
,1,Winsener Str. 11 21271 Hanstedt,<p>Winsener Str. 11<br/>21271 Hanstedt</p>,,,,53.25806,10.01649,0,LTG,0,17,1,0,0,,a:0:{}
,1,Ludwigsluster Str. 79 19294 Malliß,<p>Ludwigsluster Str. 79<br/>19294 Malliß</p>,,,,53.21652,11.34954,0,LTG,0,17,1,0,0,,a:0:{}
,1,Dahlenburger Landstr. 91 21337 Lüneburg,<p>Dahlenburger Landstr. 91<br/>21337 Lüneburg</p>,,,,53.24699427,10.43576717,0,LTG,0,17,1,0,0,,a:0:{}
,1,Timelostr. 23 21407 Deutsch Evern,<p>Timelostr. 23<br/>21407 Deutsch Evern</p>,,,,53.20478,10.44583,0,LTG,0,17,1,0,0,,a:0:{}
,1,Celler Str. 41 29303 Bergen,<p>Celler Str. 41<br/>29303 Bergen</p>,,,,52.8043,9.96788,0,LTG,0,17,1,0,0,,a:0:{}
,1,Lüchower Str. 19 29451 Dannenberg,<p>Lüchower Str. 19<br/>29451 Dannenberg</p>,,,,53.092484,11.088573,0,LTG,0,17,1,0,0,,a:0:{}
,1,Str. Des Friedens 14 19288 Dreenkrögen,<p>Str. Des Friedens 14<br/>19288 Dreenkrögen</p>,,,,53.42632,11.493814,0,LTG,0,17,1,0,0,,a:0:{}
,1,Gardelegener Str. 35 38496 Klötze,<p>Gardelegener Str. 35<br/>38496 Klötze</p>,,,,52.6219189,11.1743963,0,LTG,0,17,1,0,0,,a:0:{}
,1,Legder Chaussee 3 19336 Bad Wilsnack,<p>Legder Chaussee 3<br/>19336 Bad Wilsnack</p>,,,,52.9511892,11.9488475,0,LTG,0,17,1,0,0,,a:0:{}
,1,Gnarrenburger Str. 47 27432 Bremervörde,<p>Gnarrenburger Str. 47<br/>27432 Bremervörde</p>,,,,53.478065,9.138967,0,NORDOEL,0,6,1,0,0,,a:0:{}
,1,Burgstr. 11 25712 Burg,<p>Burgstr. 11<br/>25712 Burg</p>,,,,53.995678,9.265707,0,NORDOEL,0,6,1,0,0,,a:0:{}
,1,Hauptstr. 37 23611 Bad Schwartau,<p>Hauptstr. 37<br/>23611 Bad Schwartau</p>,,,,53.90666,10.67574,0,NORDOEL,0,6,1,0,0,,a:0:{}
,1,An Der Chaussee 5 17498 Diedrichshagen,<p>An Der Chaussee 5<br/>17498 Diedrichshagen</p>,,,,54.05365,13.478137,0,NORDOEL,0,6,1,0,0,,a:0:{}
,1,Kieler Str. 29 24238 Selent,<p>Kieler Str. 29<br/>24238 Selent</p>,,,,54.290974,10.4219055,0,NORDOEL,0,6,1,0,0,,a:0:{}
,1,Harburger Str. 184 21680 Stade,<p>Harburger Str. 184<br/>21680 Stade</p>,,,,53.58226,9.49984,0,NORDOEL,0,6,1,0,0,,a:0:{}
,1,Brachenfelder Str. 72 24534 Neumünster,<p>Brachenfelder Str. 72<br/>24534 Neumünster</p>,,,,54.074013,9.9959755,0,NORDOEL,0,6,1,0,0,,a:0:{}
,1,Oldenburger Str. 16 16 24321 Lütjenburg,<p>Oldenburger Str. 16 16<br/>24321 Lütjenburg</p>,,,,54.291576,10.597705,0,NORDOEL,0,6,1,0,0,,a:0:{}
,1,Ludwigsluster Chaussee 15a 19300 Grabow,<p>Ludwigsluster Chaussee 15a<br/>19300 Grabow</p>,,,,53.28482,11.55461,0,NORDOEL,0,6,1,0,0,,a:0:{}
,1,Kurt A. Körber Chaussee 52 21033 Hamburg,<p>Kurt A. Körber Chaussee 52<br/>21033 Hamburg</p>,,,,53.488987,10.194853,0,NORDOEL,0,6,1,0,0,,a:0:{}
,1,Eutiner Str. 29 23795 Bad Segeberg,<p>Eutiner Str. 29<br/>23795 Bad Segeberg</p>,,,,53.9481,10.30893,0,NORDOEL,0,6,1,0,0,,a:0:{}
,1,Rostocker Chaussee 4 18273 Güstrow,<p>Rostocker Chaussee 4<br/>18273 Güstrow</p>,,,,53.80662881,12.18575299,0,NORDOEL,0,6,1,0,0,,a:0:{}
,1,Hauptstr. 24 23627 Groß Sarau,<p>Hauptstr. 24<br/>23627 Groß Sarau</p>,,,,53.77213,10.737901,0,NORDOEL,0,6,1,0,0,,a:0:{}
,1,An Der B 191 19372 Spornitz,<p>An Der B 191<br/>19372 Spornitz</p>,,,,53.4123,11.7305,0,NORDOEL,0,6,1,0,0,,a:0:{}
,1,Gravensteiner Str. 2 24159 Kiel,<p>Gravensteiner Str. 2<br/>24159 Kiel</p>,,,,54.37336,10.13205,0,NORDOEL,0,6,1,0,0,,a:0:{}
,1,Georg Wilhelm Str. 205 21107 Hamburg,<p>Georg Wilhelm Str. 205<br/>21107 Hamburg</p>,,,,53.494476,9.990596,0,NORDOEL,0,6,1,0,0,,a:0:{}
,1,Schweriner Str. 29 19209 Lützow,<p>Schweriner Str. 29<br/>19209 Lützow</p>,,,,53.65605,11.18419,0,NORDOEL,0,6,1,0,0,,a:0:{}
,1,Bundesstr. 7 23881 Alt Mölln,<p>Bundesstr. 7<br/>23881 Alt Mölln</p>,,,,53.62164,10.66207,0,NORDOEL,0,6,1,0,0,,a:0:{}
,1,Jungfernstieg 13 25704 Meldorf,<p>Jungfernstieg 13<br/>25704 Meldorf</p>,,,,54.09002,9.06916,0,NORDOEL,0,6,1,0,0,,a:0:{}
,1,Kieler Str. 8 23812 Wahlstedt,<p>Kieler Str. 8<br/>23812 Wahlstedt</p>,,,,53.95985,10.2275,0,NORDOEL,0,6,1,0,0,,a:0:{}
,1,Kieler Str. 38 24211 Preetz,<p>Kieler Str. 38<br/>24211 Preetz</p>,,,,54.24739344,10.27687848,0,NORDOEL,0,6,1,0,0,,a:0:{}
,1,Bundesstr. 207 Nr. 39 21493 Elmenhorst,<p>Bundesstr. 207 Nr. 39<br/>21493 Elmenhorst</p>,,,,53.548313,10.541105,0,NORDOEL,0,6,1,0,0,,a:0:{}
,1,Segeberger Str. 29 23845 Itzstedt,<p>Segeberger Str. 29<br/>23845 Itzstedt</p>,,,,53.808613,10.159083,0,NORDOEL,0,6,1,0,0,,a:0:{}
,1,Sieker Landstr. 178 22927 Großhansdorf,<p>Sieker Landstr. 178<br/>22927 Großhansdorf</p>,,,,53.649837,10.268782,0,NORDOEL,0,6,1,0,0,,a:0:{}
,1,Rendsburger Str. 125 24340 Eckernförde,<p>Rendsburger Str. 125<br/>24340 Eckernförde</p>,,,,54.45205552,9.832849503,0,NORDOEL,0,6,1,0,0,,a:0:{}
,1,Erfurter Str. 4 24610 Trappenkamp,<p>Erfurter Str. 4<br/>24610 Trappenkamp</p>,,,,54.040838,10.218518,0,NORDOEL,0,6,1,0,0,,a:0:{}
,1,Am Tönniesberg 14 a 30453 Hannover,<p>Am Tönniesberg 14 a<br/>30453 Hannover</p>,,,,52.350346,9.702608,0,NORDOEL,0,6,1,0,0,,a:0:{}
,1,Ulmer Str. 50 89269 Vöhringen,<p>Ulmer Str. 50<br/>89269 Vöhringen</p>,,,,48.28336,10.0780621,0,PIN,0,16,1,0,0,,a:0:{}
,1,Dillinger Str. 41/2 89415 Lauingen,<p>Dillinger Str. 41/2<br/>89415 Lauingen</p>,,,,48.5732231,10.4343929,0,PIN,0,16,1,0,0,,a:0:{}
,1,Meraner Str. 11 86165 Augsburg,<p>Meraner Str. 11<br/>86165 Augsburg</p>,,,,48.3816223,10.9324245,0,PIN,0,16,1,0,0,,a:0:{}
,1,Hauptstr. 4 89143 Blaubeuren,<p>Hauptstr. 4<br/>89143 Blaubeuren</p>,,,,48.40019,9.796913,0,PIN,0,16,1,0,0,,a:0:{}
,1,Blankenburgstr. 112 9114 Chemnitz Ot Borna-He,<p>Blankenburgstr. 112<br/>9114 Chemnitz Ot Borna-He</p>,,,,50.8639526,12.9072876,0,PIN,0,16,1,0,0,,a:0:{}
,1,Würzburger Str. 29 96049 Bamberg,<p>Würzburger Str. 29<br/>96049 Bamberg</p>,,,,49.8801231,10.8836393,0,PIN,0,16,1,0,0,,a:0:{}
,1,Memminger Str. 182 89231 Neu-Ulm,<p>Memminger Str. 182<br/>89231 Neu-Ulm</p>,,,,48.36625,10.0098524,0,PIN,0,16,1,0,0,,a:0:{}
,1,Hollager Str. 151 49134 Wallenhorst,<p>Hollager Str. 151<br/>49134 Wallenhorst</p>,,,,52.34483404,7.968070507,0,Q1,0,23,1,0,0,,a:0:{}
,1,Große Diesdorfer Str. 61 39110 Magdeburg,<p>Große Diesdorfer Str. 61<br/>39110 Magdeburg</p>,,,,52.129,11.5968,0,Q1,0,23,1,0,0,,a:0:{}
,1,Emsdettener Str. 158 48485 Neuenkirchen,<p>Emsdettener Str. 158<br/>48485 Neuenkirchen</p>,,,,52.2228,7.3871,0,Q1,0,23,1,0,0,,a:0:{}
,1,Kanaltunnel Süd / B77 null 24784 Westerrönfeld,<p>Kanaltunnel Süd / B77 null<br/>24784 Westerrönfeld</p>,,,,54.2805,9.6588,0,Q1,0,23,1,0,0,,a:0:{}
,1,Schwalenberger Str. 21 32816 Schieder,<p>Schwalenberger Str. 21<br/>32816 Schieder</p>,,,,51.912,9.15493,0,Q1,0,23,1,0,0,,a:0:{}
,1,Str. Der Einheit 126 8340 Schwarzenberg,<p>Str. Der Einheit 126<br/>8340 Schwarzenberg</p>,,,,50.556,12.7557,0,Q1,0,23,1,0,0,,a:0:{}
,1,Salzufler Str. 43 32108 Bad Salzuflen,<p>Salzufler Str. 43<br/>32108 Bad Salzuflen</p>,,,,52.1013,8.78132,0,Q1,0,23,1,0,0,,a:0:{}
,1,Lemgoer Str. 2 32825 Blomberg,<p>Lemgoer Str. 2<br/>32825 Blomberg</p>,,,,51.9481,9.05688,0,Q1,0,23,1,0,0,,a:0:{}
,1,Bielefelder Str. 288 32758 Detmold,<p>Bielefelder Str. 288<br/>32758 Detmold</p>,,,,51.9466,8.83435,0,Q1,0,23,1,0,0,,a:0:{}
,1,An Der Mittelheide 2 39307 Roßdorf,<p>An Der Mittelheide 2<br/>39307 Roßdorf</p>,,,,52.4096,12.1921,0,Q1,0,23,1,0,0,,a:0:{}
,1,Rekener Str. 92 48653 Coesfeld,<p>Rekener Str. 92<br/>48653 Coesfeld</p>,,,,51.9351,7.15223,0,Q1,0,23,1,0,0,,a:0:{}
,1,Papenweg 9 32699 Extertal,<p>Papenweg 9<br/>32699 Extertal</p>,,,,52.0668,9.10296,0,Q1,0,23,1,0,0,,a:0:{}
,1,Steinberger Str. 36 31675 Bückeburg,<p>Steinberger Str. 36<br/>31675 Bückeburg</p>,,,,52.2508,9.05205,0,Q1,0,23,1,0,0,,a:0:{}
,1,Neuhäuser Str. 102 33102 Paderborn,<p>Neuhäuser Str. 102<br/>33102 Paderborn</p>,,,,51.7261,8.73519,0,Q1,0,23,1,0,0,,a:0:{}
,1,Hauptstr. 31 29410 Salzwedel Ot Brietz,<p>Hauptstr. 31<br/>29410 Salzwedel Ot Brietz</p>,,,,52.8693,11.0884,0,Q1,0,23,1,0,0,,a:0:{}
,1,Dringenberger Str. 83 33014 Bad Driburg,<p>Dringenberger Str. 83<br/>33014 Bad Driburg</p>,,,,51.7222,9.01704,0,Q1,0,23,1,0,0,,a:0:{}
,1,Karl-Liebknecht-Str. 58 15711 Zeesen,<p>Karl-Liebknecht-Str. 58<br/>15711 Zeesen</p>,,,,52.2718,13.6331,0,Q1,0,23,1,0,0,,a:0:{}
,1,Neubeckumer Str. 36 59320 Ennigerloh,<p>Neubeckumer Str. 36<br/>59320 Ennigerloh</p>,,,,51.8304,8.02469,0,Q1,0,23,1,0,0,,a:0:{}
,1,Artur-Ladebeck-Str. 52 33617 Bielefeld,<p>Artur-Ladebeck-Str. 52<br/>33617 Bielefeld</p>,,,,52.012,8.52003,0,Q1,0,23,1,0,0,,a:0:{}
,1,Scheibenberger Str. 33 9474 Crottendorf,<p>Scheibenberger Str. 33<br/>9474 Crottendorf</p>,,,,50.5031,12.9323,0,Q1,0,23,1,0,0,,a:0:{}
,1,Dinxperloer Str. 377 46399 Bocholt,<p>Dinxperloer Str. 377<br/>46399 Bocholt</p>,,,,51.8601,6.51198,0,Q1,0,23,1,0,0,,a:0:{}
,1,Malberger Str. 5 49124 Georgsmarienhütte,<p>Malberger Str. 5<br/>49124 Georgsmarienhütte</p>,,,,52.2106,8.03826,0,Q1,0,23,1,0,0,,a:0:{}
,1,Barkhausener Str. 88 49328 Melle-Buer,<p>Barkhausener Str. 88<br/>49328 Melle-Buer</p>,,,,52.2437,8.40064,0,Q1,0,23,1,0,0,,a:0:{}
,1,Höhenweg 23 49170 Hagen A.t.w.,<p>Höhenweg 23<br/>49170 Hagen A.t.w.</p>,,,,52.2,7.98945,0,Q1,0,23,1,0,0,,a:0:{}
,1,Bahnhofstr. 38 8107 Kirchberg,<p>Bahnhofstr. 38<br/>8107 Kirchberg</p>,,,,50.6297,12.5198,0,Q1,0,23,1,0,0,,a:0:{}
,1,Westerkappelner Str. 81 49497 Mettingen,<p>Westerkappelner Str. 81<br/>49497 Mettingen</p>,,,,52.3127,7.79134,0,Q1,0,23,1,0,0,,a:0:{}
,1,Poststr. 41 59469 Ense,<p>Poststr. 41<br/>59469 Ense</p>,,,,51.4905,8.00243,0,Q1,0,23,1,0,0,,a:0:{}
,1,Gökerstr. 127 26386 Wilhelmshaven,<p>Gökerstr. 127<br/>26386 Wilhelmshaven</p>,,,,53.5407,8.1216,0,Q1,0,23,1,0,0,,a:0:{}
,1,Meerbuscher Str. 96-100 40670 Meerbusch,<p>Meerbuscher Str. 96-100<br/>40670 Meerbusch</p>,,,,51.2679,6.63097,0,Q1,0,23,1,0,0,,a:0:{}
,1,Gerhart-Hauptmann-Str. 22 32257 Bünde,<p>Gerhart-Hauptmann-Str. 22<br/>32257 Bünde</p>,,,,52.2069,8.5827,0,Q1,0,23,1,0,0,,a:0:{}
,1,Am Töpferweg 1 6917 Jessen (elster),<p>Am Töpferweg 1<br/>6917 Jessen (elster)</p>,,,,51.7779,13.1425,0,Q1,0,23,1,0,0,,a:0:{}
,1,Buchholzer Str. 36 a 9487 Schlettau,<p>Buchholzer Str. 36 a<br/>9487 Schlettau</p>,,,,50.5586,12.9603,0,Q1,0,23,1,0,0,,a:0:{}
,1,Lindenstr. 117 49152 Bad Essen,<p>Lindenstr. 117<br/>49152 Bad Essen</p>,,,,52.3183,8.3579,0,Q1,0,23,1,0,0,,a:0:{}
,1,Dessauer Str. 47 6785 Oranienbaum,<p>Dessauer Str. 47<br/>6785 Oranienbaum</p>,,,,51.8016,12.3921,0,Q1,0,23,1,0,0,,a:0:{}
,1,Kurt-Schumacher-Damm 31 49078 Osnabrück,<p>Kurt-Schumacher-Damm 31<br/>49078 Osnabrück</p>,,,,52.27,8.0216,0,Q1,0,23,1,0,0,,a:0:{}
,1,Bahnhofstr. 3 37688 Beverungen,<p>Bahnhofstr. 3<br/>37688 Beverungen</p>,,,,51.667,9.37427,0,Q1,0,23,1,0,0,,a:0:{}
,1,Fischerweg 1 18069 Rostock,<p>Fischerweg 1<br/>18069 Rostock</p>,,,,54.1138,12.0806,0,Q1,0,23,1,0,0,,a:0:{}
,1,Alt Riemsloh 53 49328 Melle,<p>Alt Riemsloh 53<br/>49328 Melle</p>,,,,52.1811,8.42311,0,Q1,0,23,1,0,0,,a:0:{}
,1,Heinrich-Heine-Str. 39 15859 Storkow,<p>Heinrich-Heine-Str. 39<br/>15859 Storkow</p>,,,,52.2622,13.9369,0,Q1,0,23,1,0,0,,a:0:{}
,1,Döbelner Str. 62 1623 Lommatzsch,<p>Döbelner Str. 62<br/>1623 Lommatzsch</p>,,,,51.1916,13.2994,0,Q1,0,23,1,0,0,,a:0:{}
,1,Hohensteiner Str. 73 9399 Niederwürschnitz,<p>Hohensteiner Str. 73<br/>9399 Niederwürschnitz</p>,,,,50.73,12.7497,0,Q1,0,23,1,0,0,,a:0:{}
,1,Fröhlkingstr. 4 49584 Fürstenau,<p>Fröhlkingstr. 4<br/>49584 Fürstenau</p>,,,,52.5134,7.67765,0,Q1,0,23,1,0,0,,a:0:{}
,1,Alte Grüneberger Landstr. 1 16775 Löwenberger Land,<p>Alte Grüneberger Landstr. 1<br/>16775 Löwenberger Land</p>,,,,52.8221,13.215,0,Q1,0,23,1,0,0,,a:0:{}
,1,Kevelaerer Str. 90-100 47652 Weeze,<p>Kevelaerer Str. 90-100<br/>47652 Weeze</p>,,,,51.6228,6.2043,0,Q1,0,23,1,0,0,,a:0:{}
,1,Warendorfer Str. 3 48361 Beelen,<p>Warendorfer Str. 3<br/>48361 Beelen</p>,,,,51.9293,8.12194,0,Q1,0,23,1,0,0,,a:0:{}
,1,Wunstorfer Str. 64 31535 Neustadt A. Rbge.,<p>Wunstorfer Str. 64<br/>31535 Neustadt A. Rbge.</p>,,,,52.49538,9.456242,0,Q1,0,23,1,0,0,,a:0:{}
,1,Auf Der Höhe 35 47059 Duisburg,<p>Auf Der Höhe 35<br/>47059 Duisburg</p>,,,,51.4418,6.75348,0,Q1,0,23,1,0,0,,a:0:{}
,1,Georg-Schumann-Str. 270 4159 Leipzig,<p>Georg-Schumann-Str. 270<br/>4159 Leipzig</p>,,,,51.3712,12.334,0,Q1,0,23,1,0,0,,a:0:{}
,1,Dresdner Str. 34 9537 Flöha,<p>Dresdner Str. 34<br/>9537 Flöha</p>,,,,50.8614,13.0837,0,Q1,0,23,1,0,0,,a:0:{}
,1,Hauptstr. 12 49586 Merzen,<p>Hauptstr. 12<br/>49586 Merzen</p>,,,,52.4738,7.83009,0,Q1,0,23,1,0,0,,a:0:{}
,1,Hildesheimer Str. 2 30880 Laatzen,<p>Hildesheimer Str. 2<br/>30880 Laatzen</p>,,,,52.3218,9.7834,0,Q1,0,23,1,0,0,,a:0:{}
,1,An Der Warthe 3 29410 Salzwedel,<p>An Der Warthe 3<br/>29410 Salzwedel</p>,,,,52.8249,11.1365,0,Q1,0,23,1,0,0,,a:0:{}
,1,Kurt-Schumacher-Damm 2 49078 Osnabrück,<p>Kurt-Schumacher-Damm 2<br/>49078 Osnabrück</p>,,,,52.2707212,8.025961161,0,Q1,0,23,1,0,0,,a:0:{}
,1,Ruselbergstr. 31 94469 Deggendorf,<p>Ruselbergstr. 31<br/>94469 Deggendorf</p>,,,,48.8544,12.994,0,Q1,0,23,1,0,0,,a:0:{}
,1,Mariendorfer Damm 11/13 12109 Berlin,<p>Mariendorfer Damm 11/13<br/>12109 Berlin</p>,,,,52.4519,13.385,0,Q1,0,23,1,0,0,,a:0:{}
,1,Bremer Str. 90 49084 Osnabrück,<p>Bremer Str. 90<br/>49084 Osnabrück</p>,,,,52.28501486,8.079049587,0,Q1,0,23,1,0,0,,a:0:{}
,1,Rheiner Str. 111 49809 Lingen,<p>Rheiner Str. 111<br/>49809 Lingen</p>,,,,52.5074,7.32195,0,REWE,0,29,1,0,0,,a:0:{}
,1,Viktoriastr. 3 44532 Lünen,<p>Viktoriastr. 3<br/>44532 Lünen</p>,,,,51.6085,7.52162,0,REWE,0,29,1,0,0,,a:0:{}
,1,Dorfmitte 23 27607 Geestland,<p>Dorfmitte 23<br/>27607 Geestland</p>,,,,53.6767,8.6822,0,Raiffeisen,0,30,1,0,0,,a:0:{}
,1,An Der Bundesstr. 1 14776 Brandenburg,<p>An Der Bundesstr. 1<br/>14776 Brandenburg</p>,,,,52.4096,12.6163,0,SB,0,15,1,0,0,,a:0:{}
,1,Vöhrumer Str. 40 31228 Peine,<p>Vöhrumer Str. 40<br/>31228 Peine</p>,,,,52.329926,10.205752,0,SB,0,15,1,0,0,,a:0:{}
,1,Zündholzstr. 3 68723 Schwetzingen,<p>Zündholzstr. 3<br/>68723 Schwetzingen</p>,,,,49.4131,8.5457,0,SB,0,15,1,0,0,,a:0:{}
,1,Nonnenseestr. 1 18528 Bergen,<p>Nonnenseestr. 1<br/>18528 Bergen</p>,,,,54.4271,13.4221,0,SB,0,15,1,0,0,,a:0:{}
,1,Demminer Str. 17034 Neubrandenburg,<p>Demminer Str.<br/>17034 Neubrandenburg</p>,,,,53.583013,13.271715,0,SB,0,15,1,0,0,,a:0:{}
,1,Sielower Chaussee 38 38 3044 Cottbus,<p>Sielower Chaussee 38 38<br/>3044 Cottbus</p>,,,,51.7833,14.3168,0,SB,0,15,1,0,0,,a:0:{}
,1,Robert-Bosch-Str. 2 41352 Korschenbroich,<p>Robert-Bosch-Str. 2<br/>41352 Korschenbroich</p>,,,,51.19475,6.506017,0,SB,0,15,1,0,0,,a:0:{}
,1,Karl Eibl Str. 50 91413 Neustadt An Der Aisch,<p>Karl Eibl Str. 50<br/>91413 Neustadt An Der Aisch</p>,,,,49.5778,10.5833,0,SB,0,15,1,0,0,,a:0:{}
,1,Riedingerstr. 21 95448 Bayreuth,<p>Riedingerstr. 21<br/>95448 Bayreuth</p>,,,,49.9605,11.6032,0,SB,0,15,1,0,0,,a:0:{}
,1,Helene-Wessel-Bogen 26 80939 München,<p>Helene-Wessel-Bogen 26<br/>80939 München</p>,,,,48.1956,11.5973,0,SB,0,15,1,0,0,,a:0:{}
,1,Otto Von Guericke Str. 7 38122 Braunschweig,<p>Otto Von Guericke Str. 7<br/>38122 Braunschweig</p>,,,,52.244,10.513,0,SB,0,15,1,0,0,,a:0:{}
,1,Cheruskerring 26 31137 Hildesheim,<p>Cheruskerring 26<br/>31137 Hildesheim</p>,,,,52.1615,9.94,0,SB,0,15,1,0,0,,a:0:{}
,1,Rosenhügel 5 27721 Ritterhude,<p>Rosenhügel 5<br/>27721 Ritterhude</p>,,,,53.1803,8.70761,0,SB,0,15,1,0,0,,a:0:{}
,1,Konrad-Adenauer-Str. 62 72461 Albstadt,<p>Konrad-Adenauer-Str. 62<br/>72461 Albstadt</p>,,,,48.23551809,9.027307034,0,SB,0,15,1,0,0,,a:0:{}
,1,Dohnaer Str. 280 1257 Dresden,<p>Dohnaer Str. 280<br/>1257 Dresden</p>,,,,50.9932,13.8054,0,Sprint,0,4,1,0,0,,a:0:{}
,1,Schleusinger Allee 21 a 98693 Ilmenau,<p>Schleusinger Allee 21 a<br/>98693 Ilmenau</p>,,,,50.6823,10.9084,0,Sprint,0,4,1,0,0,,a:0:{}
,1,Grafschafter Str. 70 47199 Duisburg-Baerl,<p>Grafschafter Str. 70<br/>47199 Duisburg-Baerl</p>,,,,51.4899,6.67184,0,Sprint,0,4,1,0,0,,a:0:{}
,1,Seegefelder Str. 41 13583 Berlin,<p>Seegefelder Str. 41<br/>13583 Berlin</p>,,,,52.536,13.1913,0,Sprint,0,4,1,0,0,,a:0:{}
,1,Potsdamer Str. 11 14163 Berlin,<p>Potsdamer Str. 11<br/>14163 Berlin</p>,,,,52.433231,13.242522,0,Sprint,0,4,1,0,0,,a:0:{}
,1,Hauptstr. 94 a 2791 Oderwitz,<p>Hauptstr. 94 a<br/>2791 Oderwitz</p>,,,,50.9672,14.7104,0,Sprint,0,4,1,0,0,,a:0:{}
,1,Rossauer Str. 44 9661 Rossau,<p>Rossauer Str. 44<br/>9661 Rossau</p>,,,,50.9839,13.0343,0,Sprint,0,4,1,0,0,,a:0:{}
,1,Alt-Glasow 12 15831 Mahlow-Glasow,<p>Alt-Glasow 12<br/>15831 Mahlow-Glasow</p>,,,,52.3428,13.4349,0,Sprint,0,4,1,0,0,,a:0:{}
,1,Eislebener Str. 2 6333 Hettstedt,<p>Eislebener Str. 2<br/>6333 Hettstedt</p>,,,,51.6364,11.512,0,Sprint,0,4,1,0,0,,a:0:{}
,1,Berkenbrücker Chaussee 14943 Luckenwalde,<p>Berkenbrücker Chaussee<br/>14943 Luckenwalde</p>,,,,52.1113,13.1442,0,Sprint,0,4,1,0,0,,a:0:{}
,1,Lietzenburger Str. 97 10719 Berlin,<p>Lietzenburger Str. 97<br/>10719 Berlin</p>,,,,52.4995,13.3196,0,Sprint,0,4,1,0,0,,a:0:{}
,1,Barnetstr. 67a 12305 Berlin,<p>Barnetstr. 67a<br/>12305 Berlin</p>,,,,52.394,13.4008,0,Sprint,0,4,1,0,0,,a:0:{}
,1,Kurt-Hein-Str. 32 1662 Meißen,<p>Kurt-Hein-Str. 32<br/>1662 Meißen</p>,,,,51.1622,13.489,0,Sprint,0,4,1,0,0,,a:0:{}
,1,Rudower Str. 150 12351 Berlin,<p>Rudower Str. 150<br/>12351 Berlin</p>,,,,52.4332,13.4722,0,Sprint,0,4,1,0,0,,a:0:{}
,1,Hildburghauser Str. 27 a 12279 Berlin,<p>Hildburghauser Str. 27 a<br/>12279 Berlin</p>,,,,52.413,13.3542,0,Sprint,0,4,1,0,0,,a:0:{}
,1,Residenzstr. 79 13409 Berlin,<p>Residenzstr. 79<br/>13409 Berlin</p>,,,,52.5589,13.3703,0,Sprint,0,4,1,0,0,,a:0:{}
,1,Hauptstr. 94 1609 Gröditz,<p>Hauptstr. 94<br/>1609 Gröditz</p>,,,,51.4194,13.459,0,Sprint,0,4,1,0,0,,a:0:{}
,1,Zur Tankstelle 1 4808 Falkenhain,<p>Zur Tankstelle 1<br/>4808 Falkenhain</p>,,,,51.393,12.8758,0,Sprint,0,4,1,0,0,,a:0:{}
,1,Teerofener Weg 4 16775 Loewenberger Land Ot Nassenheide,<p>Teerofener Weg 4<br/>16775 Loewenberger Land Ot Nassenheide</p>,,,,52.8114,13.2237,0,Sprint,0,4,1,0,0,,a:0:{}
,1,Gosener Damm 13-15 12559 Berlin-Mueggelheim,<p>Gosener Damm 13-15<br/>12559 Berlin-Mueggelheim</p>,,,,52.4102,13.6666,0,Sprint,0,4,1,0,0,,a:0:{}
,1,Grüner Weg 75 12359 Berlin,<p>Grüner Weg 75<br/>12359 Berlin</p>,,,,52.4384,13.4526,0,Sprint,0,4,1,0,0,,a:0:{}
,1,Wiesenberg 1 6425 Alsleben,<p>Wiesenberg 1<br/>6425 Alsleben</p>,,,,51.7057,11.6649,0,Sprint,0,4,1,0,0,,a:0:{}
,1,Nörvenicher Str. 1 4928 Plessa,<p>Nörvenicher Str. 1<br/>4928 Plessa</p>,,,,51.4662,13.6056,0,Sprint,0,4,1,0,0,,a:0:{}
,1,Breiteweg 95 39179 Barleben,<p>Breiteweg 95<br/>39179 Barleben</p>,,,,52.1922,11.6233,0,Sprint,0,4,1,0,0,,a:0:{}
,1,Ruhlebener Str. 1 A 13597 Berlin,<p>Ruhlebener Str. 1 A<br/>13597 Berlin</p>,,,,52.5291,13.2074,0,Sprint,0,4,1,0,0,,a:0:{}
,1,Dresdner Str. 54 1662 Meißen,<p>Dresdner Str. 54<br/>1662 Meißen</p>,,,,51.1545,13.4849,0,Sprint,0,4,1,0,0,,a:0:{}
,1,Schleusinger Str. 33 98673 Brattendorf,<p>Schleusinger Str. 33<br/>98673 Brattendorf</p>,,,,50.4716,10.8485,0,Sprint,0,4,1,0,0,,a:0:{}
,1,Schmiedefelder Str. 6 98553 Schleusingen,<p>Schmiedefelder Str. 6<br/>98553 Schleusingen</p>,,,,50.5178,10.7946,0,Sprint,0,4,1,0,0,,a:0:{}
,1,Puschkinstr. 26 6886 Wittenberg,<p>Puschkinstr. 26<br/>6886 Wittenberg</p>,,,,51.8743,12.6338,0,Sprint,0,4,1,0,0,,a:0:{}
,1,Otto Lilienthal Str. 22 14542 Werder,<p>Otto Lilienthal Str. 22<br/>14542 Werder</p>,,,,52.3973,12.9152,0,Sprint,0,4,1,0,0,,a:0:{}
,1,Lützner Str. 218 4179 Leipzig,<p>Lützner Str. 218<br/>4179 Leipzig</p>,,,,51.3283853,12.30896616,0,Sprint,0,4,1,0,0,,a:0:{}
,1,Kniprodestr. 25 10407 Berlin,<p>Kniprodestr. 25<br/>10407 Berlin</p>,,,,52.5339,13.4451,0,Sprint,0,4,1,0,0,,a:0:{}
,1,Körnerstr. 48 a 12157 Berlin,<p>Körnerstr. 48 a<br/>12157 Berlin</p>,,,,52.4645,13.3348,0,Sprint,0,4,1,0,0,,a:0:{}
,1,Wannen 137-141 58455 Witten Heven,<p>Wannen 137-141<br/>58455 Witten Heven</p>,,,,51.4407,7.31006,0,Sprint,0,4,1,0,0,,a:0:{}
,1,Ernst Thälmann Str. 49 7334 Kamsdorf,<p>Ernst Thälmann Str. 49<br/>7334 Kamsdorf</p>,,,,50.6436,11.4573,0,Sprint,0,4,1,0,0,,a:0:{}
,1,Str. Des 17. Juni Nr. 11 1257 Dresden,<p>Str. Des 17. Juni Nr. 11<br/>1257 Dresden</p>,,,,51.0063,13.82,0,Sprint,0,4,1,0,0,,a:0:{}
,1,Stadtring 2 e 3042 Cottbus,<p>Stadtring 2 e<br/>3042 Cottbus</p>,,,,51.7729,14.3599,0,Sprint,0,4,1,0,0,,a:0:{}
,1,Bautzener Str. 79 2692 Ebendoerfel,<p>Bautzener Str. 79<br/>2692 Ebendoerfel</p>,,,,51.1439,14.4404,0,Sprint,0,4,1,0,0,,a:0:{}
,1,Nenndorfer Str. 47 30952 Ronnenberg-Empelde,<p>Nenndorfer Str. 47<br/>30952 Ronnenberg-Empelde</p>,,,,52.34342483,9.665565491,0,Sprint,0,4,1,0,0,,a:0:{}
,1,Dargersdorfer Str 69a 17268 Templin,<p>Dargersdorfer Str 69a<br/>17268 Templin</p>,,,,53.1127,13.514,0,Sprint,0,4,1,0,0,,a:0:{}
,1,Klausdorfer Str. 16 15838 Sperenberg Am Mellensee,<p>Klausdorfer Str. 16<br/>15838 Sperenberg Am Mellensee</p>,,,,52.1461,13.3704,0,Sprint,0,4,1,0,0,,a:0:{}
,1,Hochuferstr. 10 8371 Glauchau,<p>Hochuferstr. 10<br/>8371 Glauchau</p>,,,,50.82674493,12.52984822,0,Sprint,0,4,1,0,0,,a:0:{}
,1,Reuter Str. 18-19 12043 Berlin,<p>Reuter Str. 18-19<br/>12043 Berlin</p>,,,,52.4846,13.4293,0,Sprint,0,4,1,0,0,,a:0:{}
,1,Schorfheidestr. 21a 16348 Wandlitz,<p>Schorfheidestr. 21a<br/>16348 Wandlitz</p>,,,,52.8531,13.5242,0,Sprint,0,4,1,0,0,,a:0:{}
,1,Chausseestr. 1 15745 Wildau,<p>Chausseestr. 1<br/>15745 Wildau</p>,,,,52.3151,13.6059,0,Sprint,0,4,1,0,0,,a:0:{}
,1,Letzlinger Landstr. 39638 Gardelegen,<p>Letzlinger Landstr.<br/>39638 Gardelegen</p>,,,,52.5124,11.4005,0,Sprint,0,4,1,0,0,,a:0:{}
,1,Mecklenburgische Str. 76 10713 Berlin,<p>Mecklenburgische Str. 76<br/>10713 Berlin</p>,,,,52.479455,13.313301,0,Sprint,0,4,1,0,0,,a:0:{}
,1,Blankenburger Str. 96-99 13089 Berlin,<p>Blankenburger Str. 96-99<br/>13089 Berlin</p>,,,,52.5711,13.4433,0,Sprint,0,4,1,0,0,,a:0:{}
,1,Stämmberg 1 17213 Malchow,<p>Stämmberg 1<br/>17213 Malchow</p>,,,,53.4704,12.4442,0,Sprint,0,4,1,0,0,,a:0:{}
,1,Barnackufer 25 12207 Berlin,<p>Barnackufer 25<br/>12207 Berlin</p>,,,,52.43,13.3122,0,Sprint,0,4,1,0,0,,a:0:{}
,1,Chausseestr. 69 14774 Plaue,<p>Chausseestr. 69<br/>14774 Plaue</p>,,,,52.407,12.4103,0,Sprint,0,4,1,0,0,,a:0:{}
,1,Plötzer Chaussee 1C 6193 Löbejün,<p>Plötzer Chaussee 1C<br/>6193 Löbejün</p>,,,,51.64083476,11.91575785,0,Sprint,0,4,1,0,0,,a:0:{}
,1,Verbindungsstr. 1 6766 Wolfen,<p>Verbindungsstr. 1<br/>6766 Wolfen</p>,,,,51.6717,12.2604,0,Sprint,0,4,1,0,0,,a:0:{}
,1,Landsberger Chaussee 21 16356 Eiche,<p>Landsberger Chaussee 21<br/>16356 Eiche</p>,,,,52.5467,13.6046,0,Sprint,0,4,1,0,0,,a:0:{}
,1,Germendorfer Allee 16515 Germendorf,<p>Germendorfer Allee<br/>16515 Germendorf</p>,,,,52.74919758,13.19448352,0,Sprint,0,4,1,0,0,,a:0:{}
,1,Berliner Str. 8 a 17291 Prenzlau,<p>Berliner Str. 8 a<br/>17291 Prenzlau</p>,,,,53.3054,13.8248,0,Sprint,0,4,1,0,0,,a:0:{}
,1,Hammerallee 4 16559 Liebenwalde,<p>Hammerallee 4<br/>16559 Liebenwalde</p>,,,,52.8724,13.4004,0,Sprint,0,4,1,0,0,,a:0:{}
,1,Auricher Str. 21 26721 Emden,<p>Auricher Str. 21<br/>26721 Emden</p>,,,,53.37572531,7.206505537,0,Sprint,0,4,1,0,0,,a:0:{}
,1,Rehainer Str. 15 6917 Jessen,<p>Rehainer Str. 15<br/>6917 Jessen</p>,,,,51.7978,12.9409,0,Sprint,0,4,1,0,0,,a:0:{}
,1,An Der B 97 1 2979 Elsterheide Ot Seidewinkel,<p>An Der B 97 1<br/>2979 Elsterheide Ot Seidewinkel</p>,,,,51.4585,14.2714,0,Sprint,0,4,1,0,0,,a:0:{}
,1,Freienwalder Str. 81 16225 Eberswalde,<p>Freienwalder Str. 81<br/>16225 Eberswalde</p>,,,,52.8269,13.8477,0,Sprint,0,4,1,0,0,,a:0:{}
,1,Wolfskuehler Weg 1a 58089 Hagen,<p>Wolfskuehler Weg 1a<br/>58089 Hagen</p>,,,,51.3825,7.4355,0,Sprint,0,4,1,0,0,,a:0:{}
,1,Rostocker Chaussee 10 18273 Güstrow,<p>Rostocker Chaussee 10<br/>18273 Güstrow</p>,,,,53.8085,12.1876,0,Sprint,0,4,1,0,0,,a:0:{}
,1,Rotweg 28-32 70437 Stuttgart,<p>Rotweg 28-32<br/>70437 Stuttgart</p>,,,,48.8337326,9.182566,0,Sprint,0,4,1,0,0,,a:0:{}
,1,Rosenheimer Landstr. 26 85521 Ottobrunn,<p>Rosenheimer Landstr. 26<br/>85521 Ottobrunn</p>,,,,48.0685043,11.6579628,0,Sprint,0,4,1,0,0,,a:0:{}
,1,Situlistr. 36 80939 München,<p>Situlistr. 36<br/>80939 München</p>,,,,48.1906662,11.6165571,0,Sprint,0,4,1,0,0,,a:0:{}
,1,Riemer Str. 339 81829 München,<p>Riemer Str. 339<br/>81829 München</p>,,,,48.1405373,11.6798477,0,Sprint,0,4,1,0,0,,a:0:{}
,1,Andreas-Schubert-Str. 2 1844 Neustadt Sachsen,<p>Andreas-Schubert-Str. 2<br/>1844 Neustadt Sachsen</p>,,,,51.036,14.2215,0,Sprint,0,4,1,0,0,,a:0:{}
,1,Landsberger Allee 534 12681 Berlin,<p>Landsberger Allee 534<br/>12681 Berlin</p>,,,,52.5464,13.5742,0,Sprint,0,4,1,0,0,,a:0:{}
,1,Friedenstr. 72 39307 Genthin,<p>Friedenstr. 72<br/>39307 Genthin</p>,,,,52.3942,12.1544,0,Sprint,0,4,1,0,0,,a:0:{}
,1,Neue Regensburger Str. 37 84030 Ergolding,<p>Neue Regensburger Str. 37<br/>84030 Ergolding</p>,,,,48.55880407,12.16527486,0,Sprint,0,4,1,0,0,,a:0:{}
,1,Alt-Friedrichsfelde 61 10315 Berlin,<p>Alt-Friedrichsfelde 61<br/>10315 Berlin</p>,,,,52.509624,13.531036,0,TAMOIL,0,14,1,0,0,,a:0:{}
,1,Kalkberger Str. 189 15566 Schöneiche,<p>Kalkberger Str. 189<br/>15566 Schöneiche</p>,,,,52.47261,13.737931,0,TAMOIL,0,14,1,0,0,,a:0:{}
,1,Fürstenbergstr. 25a 79843 Löffingen,<p>Fürstenbergstr. 25a<br/>79843 Löffingen</p>,,,,47.8884,8.347864,0,TAMOIL,0,14,1,0,0,,a:0:{}
,1,Neutorplatz 14 79206 Breisach,<p>Neutorplatz 14<br/>79206 Breisach</p>,,,,48.02677,7.5868526,0,TAMOIL,0,14,1,0,0,,a:0:{}
,1,Poststr. 44175 53783 Eitorf,<p>Poststr. 44175<br/>53783 Eitorf</p>,,,,50.77094,7.45125,0,TAMOIL,0,14,1,0,0,,a:0:{}
,1,Kirchweg 14 59494 Soest,<p>Kirchweg 14<br/>59494 Soest</p>,,,,51.5475,8.133,0,TAMOIL,0,14,1,0,0,,a:0:{}
,1,Friedensplatz 12 39397 Gröningen,<p>Friedensplatz 12<br/>39397 Gröningen</p>,,,,51.94075,11.224472,0,TAMOIL,0,14,1,0,0,,a:0:{}
,1,Gewerbegebiet Ost 4 66987 Thaleischweiler-Fröschen,<p>Gewerbegebiet Ost 4<br/>66987 Thaleischweiler-Fröschen</p>,,,,49.267086,7.592517,0,TAMOIL,0,14,1,0,0,,a:0:{}
,1,Nauener Str. 12 14669 Ketzin,<p>Nauener Str. 12<br/>14669 Ketzin</p>,,,,52.4834,12.846396,0,TAMOIL,0,14,1,0,0,,a:0:{}
,1,Zur Engener Höhe / An Der Bab 81 78234 Engen,<p>Zur Engener Höhe / An Der Bab 81<br/>78234 Engen</p>,,,,47.86284,8.784739,0,TAMOIL,0,14,1,0,0,,a:0:{}
,1,Im Auel 93 53783 Eitorf,<p>Im Auel 93<br/>53783 Eitorf</p>,,,,50.769333,7.4778666,0,TAMOIL,0,14,1,0,0,,a:0:{}
,1,Präsidentenbrücke 20 51570 Windeck,<p>Präsidentenbrücke 20<br/>51570 Windeck</p>,,,,50.80794,7.6044693,0,TAMOIL,0,14,1,0,0,,a:0:{}
,1,Münchener Str. 16-18 82319 Starnberg,<p>Münchener Str. 16-18<br/>82319 Starnberg</p>,,,,48.001175,11.34991,0,TOTAL,0,#N/A,1,0,0,,a:0:{}
,1,Leipziger Str. 41 2763 Zittau,<p>Leipziger Str. 41<br/>2763 Zittau</p>,,,,50.9017,14.8177,0,Freie Tankstelle,0,25,1,0,0,,a:0:{}
,1,Limburger Str. 51-53 65604 Elz,<p>Limburger Str. 51-53<br/>65604 Elz</p>,,,,50.4048,8.03929,0,Freie Tankstelle,0,25,1,0,0,,a:0:{}
,1,Coesfelder Str. 6 48720 Rosendahl,<p>Coesfelder Str. 6<br/>48720 Rosendahl</p>,,,,52.0048,7.12873,0,Freie Tankstelle,0,25,1,0,0,,a:0:{}
,1,Industriestr. 8 27432 Bremervörde,<p>Industriestr. 8<br/>27432 Bremervörde</p>,,,,53.4931,9.11675,0,Freie Tankstelle,0,25,1,0,0,,a:0:{}
,1,Jakob-Kaiser-Str. 28 33615 Bielefeld,<p>Jakob-Kaiser-Str. 28<br/>33615 Bielefeld</p>,,,,52.0378,8.51171,0,Freie Tankstelle,0,25,1,0,0,,a:0:{}
,1,Bahnhofstr. 77 48488 Emsbüren,<p>Bahnhofstr. 77<br/>48488 Emsbüren</p>,,,,52.3988,7.30238,0,Freie Tankstelle,0,25,1,0,0,,a:0:{}
,1,Hauptstr. 113 32312 Lübbecke,<p>Hauptstr. 113<br/>32312 Lübbecke</p>,,,,52.3024,8.56175,0,Freie Tankstelle,0,25,1,0,0,,a:0:{}
,1,Deusener Str. 67 44369 Dortmund,<p>Deusener Str. 67<br/>44369 Dortmund</p>,,,,51.5373,7.43093,0,Freie Tankstelle,0,25,1,0,0,,a:0:{}
,1,Lange Str. 55-57 26655 Westerstede,<p>Lange Str. 55-57<br/>26655 Westerstede</p>,,,,53.2596,7.9193,0,Freie Tankstelle,0,25,1,0,0,,a:0:{}
,1,Mühlenanger 3 37627 Stadtoldendorf,<p>Mühlenanger 3<br/>37627 Stadtoldendorf</p>,,,,51.8873,9.62678,0,Freie Tankstelle,0,25,1,0,0,,a:0:{}
,1,Schuckertstr. 37 33613 Bielefeld,<p>Schuckertstr. 37<br/>33613 Bielefeld</p>,,,,52.0545,8.52093,0,Freie Tankstelle,0,25,1,0,0,,a:0:{}
,1,Goslarsche Str. 3b 38685 Langelsheim-Astfeld,<p>Goslarsche Str. 3b<br/>38685 Langelsheim-Astfeld</p>,,,,51.9257,10.3802,0,Freie Tankstelle,0,25,1,0,0,,a:0:{}
,1,Mindener Str. 9 32609 Hüllhorst,<p>Mindener Str. 9<br/>32609 Hüllhorst</p>,,,,52.2754,8.71266,0,Freie Tankstelle,0,25,1,0,0,,a:0:{}
,1,Landstr. 152 57462 Olpe,<p>Landstr. 152<br/>57462 Olpe</p>,,,,51.071,7.83839,0,Freie Tankstelle,0,25,1,0,0,,a:0:{}
,1,Hauptstr. 1 49176 Hilter,<p>Hauptstr. 1<br/>49176 Hilter</p>,,,,52.1895,8.18146,0,Freie Tankstelle,0,25,1,0,0,,a:0:{}
,1,Lobbericher Str. 67 41334 Nettetal,<p>Lobbericher Str. 67<br/>41334 Nettetal</p>,,,,51.2978,6.25661,0,Freie Tankstelle,0,25,1,0,0,,a:0:{}
,1,Alter Postweg 125 26133 Oldenburg,<p>Alter Postweg 125<br/>26133 Oldenburg</p>,,,,53.1035,8.21114,0,Freie Tankstelle,0,25,1,0,0,,a:0:{}
,1,Freienwalder Str. 47 a 16225 Eberswalde,<p>Freienwalder Str. 47 a<br/>16225 Eberswalde</p>,,,,52.8284,13.8369,0,Freie Tankstelle,0,25,1,0,0,,a:0:{}
,1,Kölner Str. 311 58256 Ennepetal,<p>Kölner Str. 311<br/>58256 Ennepetal</p>,,,,51.297,7.31281,0,Marktkauf,0,27,1,0,0,,a:0:{}
,1,Händelstr. 161 46282 Dorsten,<p>Händelstr. 161<br/>46282 Dorsten</p>,,,,51.6519,6.98095,0,Freie Tankstelle,0,25,1,0,0,,a:0:{}
,1,Lagesche Str. 1 32108 Bad Salzuflen,<p>Lagesche Str. 1<br/>32108 Bad Salzuflen</p>,,,,52.068,8.76099,0,Freie Tankstelle,0,25,1,0,0,,a:0:{}
,1,Frankfurter Str. 45 65428 Rüsselsheim,<p>Frankfurter Str. 45<br/>65428 Rüsselsheim</p>,,,,49.9967,8.41757,0,Freie Tankstelle,0,25,1,0,0,,a:0:{}
,1,Bergstr. 16 33415 Verl,<p>Bergstr. 16<br/>33415 Verl</p>,,,,51.8754,8.53607,0,Freie Tankstelle,0,25,1,0,0,,a:0:{}
,1,Apfelstr. 177 33611 Bielefeld,<p>Apfelstr. 177<br/>33611 Bielefeld</p>,,,,52.0505,8.53996,0,Freie Tankstelle,0,25,1,0,0,,a:0:{}
,1,Hengeloer Str. 11 48455 Bad Bentheim,<p>Hengeloer Str. 11<br/>48455 Bad Bentheim</p>,,,,52.296,7.09961,0,Freie Tankstelle,0,25,1,0,0,,a:0:{}
,1,Chausseestr. 2 16247 Joachimsthal,<p>Chausseestr. 2<br/>16247 Joachimsthal</p>,,,,52.9717,13.7452,0,Freie Tankstelle,0,25,1,0,0,,a:0:{}
,1,Industriestr. 16 41564 Kaarst,<p>Industriestr. 16<br/>41564 Kaarst</p>,,,,51.2277,6.59962,0,Freie Tankstelle,0,25,1,0,0,,a:0:{}
,1,Ludwig-Erhard-Str. 1 56637 Plaidt,<p>Ludwig-Erhard-Str. 1<br/>56637 Plaidt</p>,,,,50.376216,7.385789,0,Westfalen,0,7,1,0,0,,a:0:{}
,1,Marie-Curie-Ring 45 24941 Flensburg,<p>Marie-Curie-Ring 45<br/>24941 Flensburg</p>,,,,54.7631718,9.449561834,0,team,0,21,1,0,0,,a:0:{}
,1,Schottweg 96 24944 Flensburg,<p>Schottweg 96<br/>24944 Flensburg</p>,,,,54.799,9.47569,0,team,0,21,1,0,0,,a:0:{}
,1,Scandinavian Park 1 24983 Handewitt,<p>Scandinavian Park 1<br/>24983 Handewitt</p>,,,,54.7776,9.33409,0,team,0,21,1,0,0,,a:0:{}
,1,Raiffeisenstr. 3d 24983 Handewitt,<p>Raiffeisenstr. 3d<br/>24983 Handewitt</p>,,,,54.76996175,9.32359457,0,team,0,21,1,0,0,,a:0:{}
,1,Am Friedenshügel 39 24941 Flensburg,<p>Am Friedenshügel 39<br/>24941 Flensburg</p>,,,,54.77575614,9.408172131,0,team,0,21,1,0,0,,a:0:{}
